{"type": "FeatureCollection", "name": "kaduna-lgas", "metadata": {"source": "OpenStreetMap via Overpass (relations recorded per feature)", "admin_level": "LGA", "simplification": "Douglas-Peucker", "origin": "derived", "fetched": "live"}, "features": [{"type": "Feature", "properties": {"unit_id": "adm:ng-kd-birnin-gwari", "name": "Birnin Gwari LGA", "lga": "Birnin Gwari", "level": "lga", "centroid_lat": 10.8271, "centroid_lon": 6.558, "origin": "derived", "source_url": "https://www.openstreetmap.org/relation/3709354"}, "geometry": {"coordinates": [[[6.0897, 10.4753], [6.093, 10.546], [6.1211, 10.5532], [6.1275, 10.5693], [6.1275, 10.5934], [6.1122, 10.6054], [6.1371, 10.6697], [6.0914, 10.7002], [6.113, 10.7396], [6.0994, 10.7709], [6.1082, 10.8135], [6.1311, 10.824], [6.1227, 10.8448], [6.1815, 10.8722], [6.206, 10.8634], [6.2263, 10.8953], [6.2338, 10.9455], [6.2772, 10.9658], [6.3233, 11.0255], [6.4115, 11.0303], [6.4393, 10.9984], [6.4583, 10.9991], [6.4718, 11.0215], [6.5078, 11.0133], [6.5173, 11.0262], [6.5756, 11.0235], [6.6068, 11.0472], [6.676, 11.0574], [6.6916, 11.073], [6.6889, 11.0947], [6.716, 11.1062], [6.7065, 11.1218], [6.7337, 11.1476], [6.7425, 11.1745], [6.733, 11.2019], [6.7575, 11.2658], [6.8458, 11.3218], [6.8886, 11.3807], [6.9193, 11.3831], [6.9616, 11.358], [7.0062, 11.3618], [7.0184, 11.3174], [7.0087, 11.2938], [6.9888, 11.2753], [6.9575, 11.2761], [6.9096, 11.2418], [6.9634, 11.0748], [6.9527, 10.8943], [6.996, 10.7961], [7.1292, 10.7144], [7.1044, 10.5566], [6.9893, 10.5615], [6.9896, 10.5929], [7.0097, 10.6087], [7.0076, 10.6632], [6.9423, 10.6976], [6.933, 10.7163], [6.9097, 10.7109], [6.8792, 10.7308], [6.8462, 10.8121], [6.8365, 10.7932], [6.8093, 10.7915], [6.7966, 10.7547], [6.7166, 10.6415], [6.7259, 10.5894], [6.6471, 10.5934], [6.5403, 10.5452], [6.5216, 10.5728], [6.5243, 10.595], [6.5066, 10.6095], [6.4391, 10.5926], [6.3966, 10.5725], [6.3701, 10.5324], [6.3066, 10.489], [6.2986, 10.4705], [6.2632, 10.4569], [6.2496, 10.4215], [6.2095, 10.3803], [6.1685, 10.3838], [6.1492, 10.4504], [6.1323, 10.4641], [6.105, 10.4569], [6.0897, 10.4753]]], "type": "Polygon"}}, {"type": "Feature", "properties": {"unit_id": "adm:ng-kd-chikun", "name": "Chikun LGA", "lga": "Chikun", "level": "lga", "centroid_lat": 10.4488, "centroid_lon": 7.2482, "origin": "derived", "source_url": "https://www.openstreetmap.org/relation/3709355"}, "geometry": {"coordinates": [[[7.4399, 10.4655], [7.4394, 10.4862], [7.4885, 10.5638], [7.5218, 10.5622], [7.5263, 10.5762], [7.5408, 10.5699], [7.5594, 10.5817], [7.5735, 10.5728], [7.6021, 10.5878], [7.6249, 10.5655], [7.6746, 10.5604], [7.6926, 10.5953], [7.7051, 10.5502], [7.6953, 10.5409], [7.6986, 10.51], [7.7309, 10.469], [7.6913, 10.4318], [7.6955, 10.4119], [7.6328, 10.3896], [7.6092, 10.4028], [7.5965, 10.3947], [7.611, 10.3142], [7.5891, 10.3057], [7.5913, 10.2755], [7.5807, 10.2713], [7.5705, 10.2928], [7.5228, 10.2691], [7.5106, 10.1947], [7.4451, 10.1841], [7.3842, 10.0929], [7.335, 10.0603], [7.3005, 10.0577], [7.2885, 10.0405], [7.2071, 10.0417], [7.1886, 10.0274], [6.9523, 10.0476], [6.9012, 10.0764], [6.8821, 10.1171], [6.8853, 10.1508], [6.915, 10.1886], [6.9423, 10.1806], [6.9545, 10.192], [6.9825, 10.244], [7.0082, 10.2424], [7.0194, 10.2737], [7.0459, 10.2914], [7.0508, 10.3171], [7.0202, 10.3541], [6.9263, 10.3701], [6.9535, 10.4822], [6.9126, 10.538], [6.8691, 10.5554], [6.8395, 10.5316], [6.8419, 10.5725], [6.8166, 10.6384], [6.7198, 10.6435], [6.7966, 10.7547], [6.8093, 10.7915], [6.8365, 10.7932], [6.8541, 10.8117], [6.8792, 10.7308], [6.9097, 10.7109], [6.933, 10.7163], [6.9423, 10.6976], [7.0076, 10.6632], [7.0097, 10.6087], [6.9896, 10.5929], [6.9893, 10.5615], [7.1044, 10.5566], [7.1292, 10.7144], [7.1882, 10.7262], [7.2127, 10.693], [7.2946, 10.6495], [7.3106, 10.6272], [7.3077, 10.5943], [7.2798, 10.5853], [7.2327, 10.5299], [7.2683, 10.5125], [7.2848, 10.5249], [7.295, 10.4962], [7.3986, 10.4832], [7.4062, 10.4357], [7.4323, 10.4442], [7.4399, 10.4655]]], "type": "Polygon"}}, {"type": "Feature", "properties": {"unit_id": "adm:ng-kd-giwa", "name": "Giwa LGA", "lga": "Giwa", "level": "lga", "centroid_lat": 11.1194, "centroid_lon": 7.3434, "origin": "derived", "source_url": "https://www.openstreetmap.org/relation/3709356"}, "geometry": {"coordinates": [[[7.5858, 11.3027], [7.6221, 11.2661], [7.6253, 11.2171], [7.6014, 11.1844], [7.6494, 11.14], [7.6401, 11.077], [7.6006, 11.0844], [7.5983, 11.0731], [7.578, 11.0764], [7.5648, 11.0619], [7.517, 11.0628], [7.4906, 11.0413], [7.5231, 10.9706], [7.492, 10.9629], [7.4517, 10.972], [7.426, 11.0146], [7.4086, 11.0003], [7.3766, 11.0139], [7.3532, 11.011], [7.3324, 10.9882], [7.3245, 10.9987], [7.31, 10.9921], [7.3097, 10.942], [7.258, 10.916], [7.2157, 10.8521], [7.2056, 10.7503], [7.1882, 10.7262], [7.1292, 10.7144], [6.996, 10.7961], [6.9527, 10.8943], [6.9634, 11.0748], [6.9096, 11.2418], [6.9575, 11.2761], [6.9888, 11.2753], [6.9701, 11.2429], [7.0647, 11.1967], [7.1521, 11.1288], [7.2003, 11.1517], [7.2001, 11.1732], [7.2197, 11.1942], [7.1949, 11.2576], [7.2274, 11.2786], [7.2733, 11.2744], [7.2896, 11.2843], [7.3202, 11.2651], [7.3578, 11.2643], [7.3701, 11.3332], [7.3979, 11.378], [7.4677, 11.3777], [7.4895, 11.3522], [7.5203, 11.3616], [7.5217, 11.3404], [7.574, 11.3191], [7.5858, 11.3027]]], "type": "Polygon"}}, {"type": "Feature", "properties": {"unit_id": "adm:ng-kd-igabi", "name": "Igabi LGA", "lga": "Igabi", "level": "lga", "centroid_lat": 10.7171, "centroid_lon": 7.5894, "origin": "derived", "source_url": "https://www.openstreetmap.org/relation/3709357"}, "geometry": {"coordinates": [[[7.4864, 10.5627], [7.4549, 10.6012], [7.4684, 10.6253], [7.4246, 10.6061], [7.4076, 10.5409], [7.3781, 10.4901], [7.295, 10.4962], [7.2848, 10.5249], [7.2683, 10.5125], [7.2327, 10.5299], [7.2798, 10.5853], [7.3077, 10.5943], [7.3106, 10.6272], [7.2946, 10.6495], [7.2127, 10.693], [7.1882, 10.7262], [7.2056, 10.7503], [7.2081, 10.8348], [7.2235, 10.8655], [7.258, 10.916], [7.3097, 10.942], [7.31, 10.9921], [7.3245, 10.9987], [7.3324, 10.9882], [7.3532, 11.011], [7.4086, 11.0003], [7.426, 11.0146], [7.4391, 10.9813], [7.492, 10.9629], [7.5685, 10.9955], [7.5879, 11.0216], [7.6255, 10.9966], [7.6423, 10.9687], [7.6684, 10.9999], [7.7031, 10.9929], [7.7177, 10.9654], [7.7475, 10.9691], [7.7783, 10.9211], [7.7919, 10.9226], [7.8339, 10.8731], [7.8063, 10.8333], [7.828, 10.8259], [7.8289, 10.8127], [7.8436, 10.8118], [7.8358, 10.8001], [7.8564, 10.7883], [7.8665, 10.7996], [7.8825, 10.7945], [7.8862, 10.7644], [7.8506, 10.7478], [7.8894, 10.678], [7.859, 10.6602], [7.8662, 10.6163], [7.8549, 10.5807], [7.8963, 10.5427], [7.8597, 10.5131], [7.8586, 10.5304], [7.8409, 10.5426], [7.8579, 10.512], [7.8435, 10.4992], [7.8169, 10.5076], [7.7989, 10.4899], [7.7782, 10.4998], [7.7297, 10.4775], [7.6986, 10.51], [7.6953, 10.5409], [7.7051, 10.5502], [7.6926, 10.5953], [7.6746, 10.5604], [7.6249, 10.5655], [7.6021, 10.5878], [7.5735, 10.5728], [7.5594, 10.5817], [7.5408, 10.5699], [7.5263, 10.5762], [7.5218, 10.5622], [7.4864, 10.5627]]], "type": "Polygon"}}, {"type": "Feature", "properties": {"unit_id": "adm:ng-kd-ikara", "name": "Ikara LGA", "lga": "Ikara", "level": "lga", "centroid_lat": 11.291, "centroid_lon": 8.174, "origin": "derived", "source_url": "https://www.openstreetmap.org/relation/3709358"}, "geometry": {"coordinates": [[[7.9449, 11.4643], [7.9957, 11.4916], [8.0515, 11.489], [8.102, 11.5238], [8.1501, 11.5192], [8.1617, 11.4972], [8.1404, 11.4568], [8.1433, 11.4203], [8.1137, 11.4085], [8.1229, 11.3867], [8.1499, 11.3754], [8.2068, 11.3187], [8.2374, 11.3271], [8.2644, 11.3132], [8.2573, 11.2797], [8.2861, 11.2682], [8.2979, 11.2342], [8.4338, 11.2266], [8.4647, 11.1696], [8.5187, 11.1623], [8.506, 11.1322], [8.4789, 11.1134], [8.4116, 11.1085], [8.4017, 11.1539], [8.3357, 11.1698], [8.3195, 11.1847], [8.3022, 11.1617], [8.3107, 11.1274], [8.2888, 11.1054], [8.2225, 11.1042], [8.2275, 11.1328], [8.2132, 11.1403], [8.1579, 11.1155], [8.1142, 11.1629], [8.0706, 11.1709], [8.0451, 11.1955], [8.0799, 11.2588], [8.1061, 11.2665], [8.1055, 11.2824], [8.0732, 11.2902], [8.0576, 11.3225], [8.0635, 11.3751], [7.999, 11.3394], [7.9732, 11.3499], [7.9721, 11.3723], [7.9618, 11.3743], [7.9662, 11.4015], [7.9756, 11.4018], [7.973, 11.4377], [7.9449, 11.4643]]], "type": "Polygon"}}, {"type": "Feature", "properties": {"unit_id": "adm:ng-kd-jaba", "name": "Jaba LGA", "lga": "Jaba", "level": "lga", "centroid_lat": 9.4884, "centroid_lon": 8.0356, "origin": "derived", "source_url": "https://www.openstreetmap.org/relation/3709359"}, "geometry": {"coordinates": [[[8.0175, 9.5718], [7.9579, 9.6335], [7.9275, 9.6147], [7.9257, 9.5745], [7.9443, 9.5599], [7.9327, 9.5382], [7.953, 9.5023], [7.9556, 9.4608], [7.9391, 9.4432], [7.9576, 9.4221], [7.9593, 9.3976], [7.9065, 9.3297], [7.9191, 9.3174], [8.0083, 9.3231], [8.021, 9.3429], [8.0358, 9.3407], [8.0302, 9.3618], [8.0591, 9.3583], [8.045, 9.3935], [8.1047, 9.4477], [8.0749, 9.4597], [8.0698, 9.4954], [8.1518, 9.5068], [8.1593, 9.5246], [8.1458, 9.5345], [8.1648, 9.5511], [8.1574, 9.5676], [8.1718, 9.5658], [8.1725, 9.582], [8.1167, 9.625], [8.0944, 9.6186], [8.0791, 9.5819], [8.0175, 9.5718]]], "type": "Polygon"}}, {"type": "Feature", "properties": {"unit_id": "adm:ng-kd-jema-a", "name": "Jema'a LGA", "lga": "Jema'a", "level": "lga", "centroid_lat": 9.426, "centroid_lon": 8.2466, "origin": "derived", "source_url": "https://www.openstreetmap.org/relation/3709360"}, "geometry": {"coordinates": [[[8.4987, 9.5756], [8.4541, 9.5326], [8.4123, 9.5502], [8.3513, 9.5427], [8.3354, 9.59], [8.3199, 9.6094], [8.2989, 9.6097], [8.2795, 9.5784], [8.286, 9.5716], [8.2409, 9.5754], [8.2448, 9.5316], [8.2265, 9.5049], [8.1521, 9.5503], [8.1518, 9.5068], [8.0698, 9.4954], [8.0749, 9.4597], [8.1047, 9.4477], [8.045, 9.3935], [8.0591, 9.3583], [8.0302, 9.3618], [8.0358, 9.3407], [8.021, 9.3429], [8.0083, 9.3231], [7.9406, 9.3142], [8.0609, 9.2658], [8.0872, 9.2307], [8.1304, 9.2154], [8.1498, 9.2287], [8.1726, 9.2226], [8.1865, 9.2386], [8.247, 9.2394], [8.2705, 9.2673], [8.2669, 9.2803], [8.2966, 9.2857], [8.3673, 9.3522], [8.4128, 9.3694], [8.4477, 9.4342], [8.473, 9.4446], [8.5159, 9.4934], [8.5778, 9.4992], [8.5557, 9.5816], [8.4987, 9.5756]]], "type": "Polygon"}}, {"type": "Feature", "properties": {"unit_id": "adm:ng-kd-kachia", "name": "Kachia LGA", "lga": "Kachia", "level": "lga", "centroid_lat": 9.8443, "centroid_lon": 7.7232, "origin": "derived", "source_url": "https://www.openstreetmap.org/relation/3709361"}, "geometry": {"coordinates": [[[7.2227, 9.7409], [7.2047, 9.7583], [7.2105, 9.7801], [7.2517, 9.7944], [7.2736, 9.7834], [7.2929, 9.8112], [7.2955, 9.8877], [7.2778, 10.0164], [7.2541, 10.0392], [7.2885, 10.0405], [7.3005, 10.0577], [7.335, 10.0603], [7.3719, 10.0823], [7.4451, 10.1841], [7.5106, 10.1947], [7.556, 10.1724], [7.5983, 10.1002], [7.6187, 10.095], [7.6373, 10.0385], [7.6199, 10.0447], [7.6273, 10.0167], [7.6906, 10.0048], [7.7205, 10.0202], [7.7361, 10.0124], [7.7481, 9.978], [7.7664, 9.9957], [7.802, 9.9999], [7.7955, 10.0476], [7.8203, 10.0688], [7.8576, 10.0748], [7.8963, 10.0587], [7.8971, 10.0874], [7.9395, 10.1061], [7.949, 10.1306], [7.9985, 10.1181], [7.9971, 10.0935], [7.9807, 10.1033], [7.9797, 10.089], [8.027, 10.0432], [8.0365, 9.9895], [8.0108, 9.9494], [8.0423, 9.9492], [8.0603, 9.9336], [8.0598, 9.9158], [8.0777, 9.9203], [8.0899, 9.8864], [8.087, 9.8611], [8.0228, 9.8016], [8.0234, 9.7836], [8.0677, 9.7716], [8.0786, 9.7575], [8.0708, 9.7327], [8.1101, 9.7067], [8.1156, 9.6804], [8.1334, 9.6689], [8.1167, 9.625], [8.0944, 9.6186], [8.0873, 9.5889], [8.0378, 9.5678], [8.0066, 9.5756], [7.9579, 9.6335], [7.9206, 9.6372], [7.9004, 9.6743], [7.8656, 9.6777], [7.8673, 9.6934], [7.8469, 9.6954], [7.8158, 9.6479], [7.7695, 9.6795], [7.7486, 9.6765], [7.7478, 9.6356], [7.7343, 9.6092], [7.716, 9.604], [7.648, 9.6271], [7.6121, 9.5953], [7.5671, 9.5772], [7.5297, 9.6023], [7.5122, 9.5871], [7.448, 9.6162], [7.4315, 9.5912], [7.3087, 9.5729], [7.29, 9.5141], [7.2087, 9.5402], [7.3056, 9.6277], [7.2764, 9.6899], [7.2227, 9.7409]]], "type": "Polygon"}}, {"type": "Feature", "properties": {"unit_id": "adm:ng-kd-kaduna-north", "name": "Kaduna North LGA", "lga": "Kaduna North", "level": "lga", "centroid_lat": 10.5582, "centroid_lon": 7.4349, "origin": "derived", "source_url": "https://www.openstreetmap.org/relation/3709362"}, "geometry": {"coordinates": [[[7.419, 10.5093], [7.4397, 10.4867], [7.4854, 10.5548], [7.4549, 10.6012], [7.4684, 10.6253], [7.4246, 10.6061], [7.4152, 10.5883], [7.4127, 10.5614], [7.4272, 10.5504], [7.4182, 10.5473], [7.419, 10.5093]]], "type": "Polygon"}}, {"type": "Feature", "properties": {"unit_id": "adm:ng-kd-kaduna-south", "name": "Kaduna South LGA", "lga": "Kaduna South", "level": "lga", "centroid_lat": 10.4967, "centroid_lon": 7.4163, "origin": "derived", "source_url": "https://www.openstreetmap.org/relation/3709363"}, "geometry": {"coordinates": [[[7.4269, 10.5494], [7.4182, 10.5473], [7.4185, 10.5022], [7.4383, 10.4914], [7.4405, 10.4671], [7.4323, 10.4442], [7.4089, 10.4351], [7.3983, 10.4456], [7.4006, 10.4811], [7.3781, 10.4901], [7.4076, 10.5574], [7.4269, 10.5494]]], "type": "Polygon"}}, {"type": "Feature", "properties": {"unit_id": "adm:ng-kd-kagarko", "name": "Kagarko LGA", "lga": "Kagarko", "level": "lga", "centroid_lat": 9.5099, "centroid_lon": 7.6991, "origin": "derived", "source_url": "https://www.openstreetmap.org/relation/3709364"}, "geometry": {"coordinates": [[[7.7312, 9.3261], [7.693, 9.3494], [7.6675, 9.4014], [7.647, 9.4087], [7.6141, 9.4061], [7.5091, 9.355], [7.3897, 9.3359], [7.334, 9.3408], [7.2328, 9.3184], [7.1967, 9.4756], [7.2087, 9.5402], [7.29, 9.5141], [7.3087, 9.5729], [7.4315, 9.5912], [7.448, 9.6162], [7.5122, 9.5871], [7.5297, 9.6023], [7.5671, 9.5772], [7.6121, 9.5953], [7.648, 9.6271], [7.716, 9.604], [7.7343, 9.6092], [7.7478, 9.6356], [7.7486, 9.6765], [7.7695, 9.6795], [7.8158, 9.6479], [7.8365, 9.6916], [7.8673, 9.6934], [7.8656, 9.6777], [7.9004, 9.6743], [7.9206, 9.6372], [7.9479, 9.6349], [7.9275, 9.6147], [7.9257, 9.5745], [7.9443, 9.5599], [7.9327, 9.5382], [7.953, 9.5023], [7.9556, 9.4608], [7.9391, 9.4432], [7.9576, 9.4221], [7.9593, 9.3976], [7.9065, 9.3297], [7.9191, 9.3174], [7.8725, 9.29], [7.7929, 9.2756], [7.7312, 9.3261]]], "type": "Polygon"}}, {"type": "Feature", "properties": {"unit_id": "adm:ng-kd-kajuru", "name": "Kajuru LGA", "lga": "Kajuru", "level": "lga", "centroid_lat": 10.2698, "centroid_lon": 7.8431, "origin": "derived", "source_url": "https://www.openstreetmap.org/relation/3709365"}, "geometry": {"coordinates": [[[7.7989, 10.4899], [7.8169, 10.5076], [7.833, 10.4987], [7.857, 10.5059], [7.8409, 10.5426], [7.8586, 10.5304], [7.8597, 10.5131], [7.8856, 10.5169], [7.898, 10.4887], [7.9317, 10.4662], [7.9489, 10.477], [8.0114, 10.4751], [8.0002, 10.4497], [8.0394, 10.3432], [8.0327, 10.302], [8.0594, 10.3178], [8.0772, 10.3055], [8.0977, 10.3123], [8.1166, 10.2928], [8.1141, 10.2671], [8.1276, 10.249], [8.0925, 10.2224], [8.0648, 10.2389], [8.0829, 10.2611], [8.071, 10.2861], [8.039, 10.2829], [8.0173, 10.244], [8.0231, 10.2319], [7.9923, 10.195], [7.9903, 10.1785], [8.004, 10.1712], [7.9956, 10.1497], [7.9704, 10.1497], [7.9395, 10.1061], [7.8971, 10.0874], [7.8963, 10.0587], [7.8576, 10.0748], [7.8203, 10.0688], [7.7955, 10.0476], [7.802, 9.9999], [7.7664, 9.9957], [7.7481, 9.978], [7.7361, 10.0124], [7.7205, 10.0202], [7.6906, 10.0048], [7.6273, 10.0167], [7.6199, 10.0447], [7.6373, 10.0385], [7.6187, 10.095], [7.5983, 10.1002], [7.556, 10.1724], [7.5106, 10.1947], [7.5228, 10.2691], [7.5705, 10.2928], [7.5861, 10.2719], [7.5891, 10.3057], [7.611, 10.3142], [7.5965, 10.3947], [7.6092, 10.4028], [7.6328, 10.3896], [7.6955, 10.4119], [7.6913, 10.4318], [7.732, 10.4827], [7.7782, 10.4998], [7.7989, 10.4899]]], "type": "Polygon"}}, {"type": "Feature", "properties": {"unit_id": "adm:ng-kd-kaura", "name": "Kaura LGA", "lga": "Kaura", "level": "lga", "centroid_lat": 9.666, "centroid_lon": 8.4498, "origin": "derived", "source_url": "https://www.openstreetmap.org/relation/3709366"}, "geometry": {"coordinates": [[[8.5007, 9.7303], [8.4779, 9.6889], [8.4012, 9.7041], [8.3787, 9.7265], [8.352, 9.707], [8.368, 9.6792], [8.3426, 9.6609], [8.348, 9.6486], [8.3299, 9.649], [8.3385, 9.6252], [8.3175, 9.6284], [8.3118, 9.6124], [8.3354, 9.59], [8.3513, 9.5427], [8.4123, 9.5502], [8.4541, 9.5326], [8.4987, 9.5756], [8.5557, 9.5816], [8.5704, 9.64], [8.599, 9.6787], [8.5989, 9.7279], [8.576, 9.726], [8.5708, 9.7409], [8.5452, 9.7385], [8.5283, 9.7551], [8.5285, 9.7369], [8.5011, 9.7409], [8.5007, 9.7303]]], "type": "Polygon"}}, {"type": "Feature", "properties": {"unit_id": "adm:ng-kd-kauru", "name": "Kauru LGA", "lga": "Kauru", "level": "lga", "centroid_lat": 10.2467, "centroid_lon": 8.2798, "origin": "derived", "source_url": "https://www.openstreetmap.org/relation/3709367"}, "geometry": {"coordinates": [[[[7.8894, 10.678], [7.859, 10.6602], [7.8662, 10.6163], [7.8549, 10.5807], [7.8963, 10.5427], [7.8716, 10.5208], [7.9317, 10.4662], [7.9489, 10.477], [8.0114, 10.4751], [8.0002, 10.4497], [8.0394, 10.3432], [8.0353, 10.2987], [8.0594, 10.3178], [8.0772, 10.3055], [8.0977, 10.3123], [8.1171, 10.2885], [8.1445, 10.282], [8.1446, 10.2503], [8.1939, 10.2185], [8.1694, 10.19], [8.2062, 10.1678], [8.203, 10.147], [8.2401, 10.1195], [8.2211, 10.104], [8.2463, 10.063], [8.2716, 10.0548], [8.2721, 10.0223], [8.3199, 10.0288], [8.3349, 10.0167], [8.3698, 10.043], [8.3825, 10.0135], [8.4343, 9.998], [8.4553, 10.0178], [8.4513, 10.0449], [8.5009, 10.0922], [8.4862, 10.1308], [8.45, 10.1415], [8.4395, 10.1761], [8.4153, 10.1886], [8.4243, 10.2092], [8.3959, 10.2944], [8.3794, 10.2957], [8.328, 10.246], [8.3199, 10.2969], [8.3305, 10.3539], [8.363, 10.3939], [8.4071, 10.4031], [8.4162, 10.4442], [8.3493, 10.4928], [8.3203, 10.4938], [8.3137, 10.5648], [8.2504, 10.5966], [8.2544, 10.6302], [8.235, 10.6662], [8.2124, 10.6511], [8.2059, 10.669], [8.1822, 10.6797], [8.1662, 10.6704], [8.1299, 10.6849], [8.1143, 10.6715], [8.0913, 10.6744], [8.0753, 10.6908], [7.9769, 10.7127], [7.9541, 10.6922], [7.9477, 10.7146], [7.9178, 10.7018], [7.9152, 10.6871], [7.8988, 10.6957], [7.8894, 10.678]]], [[[8.6347, 9.8668], [8.6439, 9.7754], [8.6336, 9.7546], [8.5822, 9.7239], [8.5708, 9.7409], [8.5452, 9.7385], [8.5283, 9.7551], [8.5285, 9.7369], [8.5011, 9.7409], [8.4847, 9.7641], [8.512, 9.8119], [8.5096, 9.8651], [8.4332, 9.8869], [8.4202, 9.918], [8.4357, 9.9654], [8.4238, 9.9701], [8.4348, 9.9771], [8.429, 9.9881], [8.4769, 9.9851], [8.4878, 10.0185], [8.5385, 10.0323], [8.589, 10.0229], [8.6107, 10.0012], [8.6401, 10.015], [8.6796, 10.0111], [8.6347, 9.8668]]]], "type": "MultiPolygon"}}, {"type": "Feature", "properties": {"unit_id": "adm:ng-kd-kubau", "name": "Kubau LGA", "lga": "Kubau", "level": "lga", "centroid_lat": 10.8229, "centroid_lon": 8.3143, "origin": "derived", "source_url": "https://www.openstreetmap.org/relation/3709368"}, "geometry": {"coordinates": [[[8.5133, 11.1222], [8.6073, 11.0712], [8.6148, 11.0177], [8.599, 11.0021], [8.5685, 10.9075], [8.5808, 10.9017], [8.585, 10.8615], [8.5587, 10.7892], [8.5729, 10.7737], [8.5716, 10.7483], [8.4812, 10.7159], [8.4469, 10.7321], [8.3835, 10.7331], [8.3724, 10.7265], [8.3847, 10.7099], [8.3695, 10.7069], [8.3776, 10.6733], [8.3345, 10.6512], [8.3344, 10.6264], [8.3566, 10.613], [8.346, 10.5997], [8.3638, 10.588], [8.3451, 10.5771], [8.3666, 10.5734], [8.3476, 10.5488], [8.3835, 10.5362], [8.3921, 10.4941], [8.4218, 10.4682], [8.4162, 10.4442], [8.3493, 10.4928], [8.3203, 10.4938], [8.3137, 10.5648], [8.2504, 10.5966], [8.2544, 10.6302], [8.2405, 10.6629], [8.2124, 10.6511], [8.2059, 10.669], [8.1822, 10.6797], [8.1662, 10.6704], [8.1299, 10.6849], [8.1143, 10.6715], [8.0913, 10.6744], [8.0752, 10.7064], [8.0869, 10.7403], [8.0607, 10.7672], [8.0872, 10.7998], [8.1266, 10.809], [8.1449, 10.7966], [8.1633, 10.8215], [8.1596, 10.849], [8.174, 10.8759], [8.1805, 10.8848], [8.1841, 10.8676], [8.1991, 10.8738], [8.1832, 10.896], [8.2298, 10.9064], [8.2503, 10.9366], [8.2174, 11.0227], [8.1974, 11.0323], [8.1661, 11.0802], [8.1571, 11.1121], [8.1671, 11.1247], [8.2132, 11.1403], [8.2275, 11.1328], [8.2225, 11.1042], [8.2888, 11.1054], [8.3107, 11.1274], [8.3022, 11.1617], [8.3195, 11.1847], [8.3357, 11.1698], [8.4017, 11.1539], [8.4116, 11.1085], [8.4789, 11.1134], [8.506, 11.1322], [8.5133, 11.1222]]], "type": "Polygon"}}, {"type": "Feature", "properties": {"unit_id": "adm:ng-kd-kudan", "name": "Kudan LGA", "lga": "Kudan", "level": "lga", "centroid_lat": 11.2535, "centroid_lon": 7.7625, "origin": "derived", "source_url": "https://www.openstreetmap.org/relation/3709369"}, "geometry": {"coordinates": [[[7.7927, 11.3761], [7.8775, 11.287], [7.8539, 11.2739], [7.8486, 11.2882], [7.8126, 11.29], [7.8098, 11.2132], [7.8157, 11.2019], [7.8407, 11.2004], [7.8492, 11.1706], [7.8125, 11.1495], [7.7909, 11.1604], [7.7874, 11.1767], [7.753, 11.1969], [7.7521, 11.2401], [7.7363, 11.2368], [7.7339, 11.2467], [7.715, 11.2322], [7.7205, 11.2049], [7.6998, 11.1924], [7.6857, 11.1961], [7.6904, 11.2078], [7.6253, 11.2171], [7.6187, 11.2777], [7.7062, 11.31], [7.7197, 11.3244], [7.7209, 11.3659], [7.7659, 11.3777], [7.7859, 11.3614], [7.7927, 11.3761]]], "type": "Polygon"}}, {"type": "Feature", "properties": {"unit_id": "adm:ng-kd-lere", "name": "Lere LGA", "lga": "Lere", "level": "lga", "centroid_lat": 10.3845, "centroid_lon": 8.519, "origin": "derived", "source_url": "https://www.openstreetmap.org/relation/3709370"}, "geometry": {"coordinates": [[[8.7792, 10.5981], [8.8069, 10.5904], [8.7843, 10.5433], [8.7855, 10.4965], [8.7492, 10.4407], [8.7968, 10.4168], [8.8235, 10.3833], [8.8051, 10.3556], [8.7993, 10.3029], [8.7343, 10.2751], [8.7287, 10.2483], [8.6861, 10.2112], [8.672, 10.1462], [8.6796, 10.011], [8.6401, 10.015], [8.6107, 10.0012], [8.589, 10.0229], [8.5385, 10.0323], [8.4878, 10.0185], [8.4769, 9.9851], [8.4342, 9.994], [8.4553, 10.0178], [8.4513, 10.0449], [8.5009, 10.0922], [8.4862, 10.1308], [8.45, 10.1415], [8.4395, 10.1761], [8.4153, 10.1886], [8.4243, 10.2092], [8.3959, 10.2944], [8.3794, 10.2957], [8.328, 10.246], [8.3199, 10.2969], [8.3305, 10.3539], [8.363, 10.3939], [8.4071, 10.4031], [8.4217, 10.4354], [8.4218, 10.4682], [8.3921, 10.4941], [8.3835, 10.5362], [8.3476, 10.5488], [8.3666, 10.5734], [8.3451, 10.5771], [8.3638, 10.588], [8.346, 10.5997], [8.3566, 10.613], [8.3344, 10.6264], [8.3369, 10.6574], [8.3776, 10.6733], [8.3695, 10.7069], [8.3862, 10.7172], [8.3724, 10.7265], [8.4141, 10.7366], [8.4812, 10.7159], [8.5063, 10.6505], [8.5345, 10.6327], [8.5936, 10.6451], [8.6439, 10.6305], [8.7111, 10.5434], [8.7792, 10.5981]]], "type": "Polygon"}}, {"type": "Feature", "properties": {"unit_id": "adm:ng-kd-makarfi", "name": "Makarfi LGA", "lga": "Makarfi", "level": "lga", "centroid_lat": 11.327, "centroid_lon": 7.952, "origin": "derived", "source_url": "https://www.openstreetmap.org/relation/3709371"}, "geometry": {"coordinates": [[[7.9449, 11.4643], [7.973, 11.4377], [7.9756, 11.4018], [7.9662, 11.4015], [7.9618, 11.3743], [7.9721, 11.3723], [7.9732, 11.3499], [7.999, 11.3394], [8.0635, 11.3751], [8.0576, 11.3225], [8.0732, 11.2902], [8.1055, 11.2824], [8.1061, 11.2665], [8.0799, 11.2588], [8.0451, 11.1955], [7.9823, 11.2354], [7.9475, 11.2346], [7.8822, 11.1926], [7.8157, 11.2019], [7.8126, 11.29], [7.8486, 11.2882], [7.8539, 11.2739], [7.8775, 11.287], [7.8005, 11.3767], [7.8221, 11.3689], [7.8738, 11.3821], [7.8975, 11.4286], [7.9449, 11.4643]]], "type": "Polygon"}}, {"type": "Feature", "properties": {"unit_id": "adm:ng-kd-sabon-gari", "name": "Sabon Gari LGA", "lga": "Sabon Gari", "level": "lga", "centroid_lat": 11.1803, "centroid_lon": 7.7102, "origin": "derived", "source_url": "https://www.openstreetmap.org/relation/3709372"}, "geometry": {"coordinates": [[[7.7704, 11.18], [7.753, 11.1969], [7.7521, 11.2401], [7.7257, 11.2474], [7.715, 11.2322], [7.7205, 11.2049], [7.6998, 11.1924], [7.6857, 11.1961], [7.6904, 11.2078], [7.6253, 11.2171], [7.6014, 11.1844], [7.6494, 11.14], [7.6457, 11.1308], [7.6688, 11.1312], [7.7443, 11.0864], [7.7533, 11.1276], [7.8125, 11.1495], [7.7704, 11.18]]], "type": "Polygon"}}, {"type": "Feature", "properties": {"unit_id": "adm:ng-kd-sanga", "name": "Sanga LGA", "lga": "Sanga", "level": "lga", "centroid_lat": 9.234, "centroid_lon": 8.3809, "origin": "derived", "source_url": "https://www.openstreetmap.org/relation/3709373"}, "geometry": {"coordinates": [[[8.1865, 9.2386], [8.247, 9.2394], [8.2705, 9.2673], [8.2669, 9.2803], [8.2966, 9.2857], [8.3673, 9.3522], [8.4128, 9.3694], [8.4477, 9.4342], [8.473, 9.4446], [8.5159, 9.4934], [8.5778, 9.4992], [8.6027, 9.4825], [8.6423, 9.4011], [8.6954, 9.3784], [8.6981, 9.3206], [8.6492, 9.1713], [8.6207, 9.1149], [8.5668, 9.0608], [8.5595, 9.029], [8.5333, 9.0044], [8.5043, 9.0014], [8.4466, 9.1126], [8.3815, 9.1774], [8.2584, 9.1829], [8.2328, 9.1048], [8.1919, 9.0524], [8.1376, 9.0362], [8.0616, 9.0521], [8.0872, 9.2307], [8.1304, 9.2154], [8.1498, 9.2287], [8.1726, 9.2226], [8.1865, 9.2386]]], "type": "Polygon"}}, {"type": "Feature", "properties": {"unit_id": "adm:ng-kd-soba", "name": "Soba LGA", "lga": "Soba", "level": "lga", "centroid_lat": 10.9083, "centroid_lon": 7.9891, "origin": "derived", "source_url": "https://www.openstreetmap.org/relation/3709374"}, "geometry": {"coordinates": [[[7.9823, 11.2354], [8.0706, 11.1709], [8.0917, 11.1738], [8.1334, 11.1482], [8.1974, 11.0323], [8.2174, 11.0227], [8.2493, 10.952], [8.2298, 10.9064], [8.1832, 10.896], [8.1991, 10.8738], [8.1841, 10.8676], [8.1805, 10.8848], [8.174, 10.8759], [8.1596, 10.849], [8.1633, 10.8215], [8.1449, 10.7966], [8.1266, 10.809], [8.0633, 10.781], [8.0607, 10.7672], [8.0869, 10.7403], [8.0744, 10.7189], [8.0889, 10.6801], [7.9769, 10.7127], [7.9541, 10.6922], [7.9451, 10.7147], [7.9178, 10.7018], [7.9152, 10.6871], [7.8988, 10.6957], [7.8894, 10.678], [7.8506, 10.7478], [7.8862, 10.7644], [7.8825, 10.7945], [7.8485, 10.7926], [7.8358, 10.8001], [7.8436, 10.8118], [7.8051, 10.8389], [7.8339, 10.8731], [7.7919, 10.9226], [7.8175, 10.9607], [7.8145, 10.9991], [7.7995, 11.0107], [7.8202, 11.0353], [7.7999, 11.1038], [7.7746, 11.133], [7.8492, 11.1706], [7.8413, 11.1992], [7.8822, 11.1926], [7.9475, 11.2346], [7.9823, 11.2354]]], "type": "Polygon"}}, {"type": "Feature", "properties": {"unit_id": "adm:ng-kd-zangon-kataf", "name": "Zangon Kataf LGA", "lga": "Zangon Kataf", "level": "lga", "centroid_lat": 9.9321, "centroid_lon": 8.187, "origin": "derived", "source_url": "https://www.openstreetmap.org/relation/3709375"}, "geometry": {"coordinates": [[[8.3698, 10.043], [8.3825, 10.0135], [8.4343, 9.998], [8.4202, 9.918], [8.4332, 9.8869], [8.5096, 9.8651], [8.512, 9.8119], [8.4847, 9.7641], [8.5007, 9.7303], [8.4779, 9.6889], [8.4012, 9.7041], [8.3787, 9.7265], [8.352, 9.707], [8.368, 9.6792], [8.3426, 9.6609], [8.348, 9.6486], [8.3299, 9.649], [8.3385, 9.6252], [8.3175, 9.6284], [8.2869, 9.5999], [8.2803, 9.5684], [8.2409, 9.5754], [8.2448, 9.5316], [8.2265, 9.5049], [8.1748, 9.5332], [8.1574, 9.5676], [8.1718, 9.5658], [8.1725, 9.582], [8.1167, 9.625], [8.1334, 9.6689], [8.1156, 9.6804], [8.1101, 9.7067], [8.0708, 9.7327], [8.0771, 9.7609], [8.0234, 9.7836], [8.0228, 9.8016], [8.087, 9.8611], [8.0899, 9.8864], [8.0777, 9.9203], [8.0598, 9.9158], [8.0603, 9.9336], [8.0423, 9.9492], [8.0108, 9.9494], [8.0365, 9.9895], [8.027, 10.0432], [7.9826, 10.0796], [7.9807, 10.1033], [7.9971, 10.0935], [7.9985, 10.1181], [7.9519, 10.1312], [7.976, 10.1525], [7.9956, 10.1497], [8.004, 10.1712], [7.9903, 10.1785], [7.9923, 10.195], [8.0231, 10.2319], [8.0173, 10.244], [8.039, 10.2829], [8.071, 10.2861], [8.0829, 10.2611], [8.0648, 10.2389], [8.0925, 10.2224], [8.1276, 10.249], [8.1141, 10.2671], [8.1171, 10.2885], [8.1445, 10.282], [8.1446, 10.2503], [8.1939, 10.2185], [8.1694, 10.19], [8.2062, 10.1678], [8.203, 10.147], [8.2401, 10.1195], [8.2211, 10.104], [8.2463, 10.063], [8.2716, 10.0548], [8.2721, 10.0223], [8.3199, 10.0288], [8.3349, 10.0167], [8.3698, 10.043]]], "type": "Polygon"}}, {"type": "Feature", "properties": {"unit_id": "adm:ng-kd-zaria", "name": "Zaria LGA", "lga": "Zaria", "level": "lga", "centroid_lat": 11.0337, "centroid_lon": 7.6756, "origin": "derived", "source_url": "https://www.openstreetmap.org/relation/3709376"}, "geometry": {"coordinates": [[[7.7496, 11.1211], [7.7443, 11.0864], [7.6688, 11.1312], [7.6457, 11.1308], [7.6401, 11.077], [7.6006, 11.0844], [7.5983, 11.0731], [7.578, 11.0764], [7.5648, 11.0619], [7.517, 11.0628], [7.4878, 11.0341], [7.5056, 11.0196], [7.5231, 10.9706], [7.5685, 10.9955], [7.5879, 11.0216], [7.6255, 10.9966], [7.6423, 10.9687], [7.6684, 10.9999], [7.7031, 10.9929], [7.7177, 10.9654], [7.7475, 10.9691], [7.7863, 10.9201], [7.8039, 10.9273], [7.8175, 10.9607], [7.8145, 10.9991], [7.7995, 11.0107], [7.8202, 11.0353], [7.8162, 11.0659], [7.7746, 11.133], [7.7496, 11.1211]]], "type": "Polygon"}}]}