{"type": "FeatureCollection", "name": "nigeria-states", "metadata": {"source": "OpenStreetMap via Overpass (overpass.kumi.systems)", "admin_level": 4, "simplification": "Douglas-Peucker eps=0.02deg", "origin": "derived", "fetched": "live"}, "features": [{"type": "Feature", "properties": {"name": "Yobe", "level": "state", "osm_relation_id": 3698564, "centroid_lat": 12.2983, "centroid_lon": 11.4324, "origin": "derived", "source_url": "https://www.openstreetmap.org/relation/3698564"}, "geometry": {"type": "Polygon", "coordinates": [[[11.3336, 13.3799], [10.6561, 13.3607], [10.4653, 13.2875], [10.204, 13.2707], [10.0113, 13.1824], [9.6748, 12.8247], [9.7652, 12.7962], [9.8582, 12.8202], [9.9644, 12.9444], [10.2397, 13.0276], [10.2813, 12.9883], [10.2905, 12.8155], [10.3139, 12.8492], [10.4138, 12.8537], [10.4019, 12.8231], [10.4563, 12.8041], [10.5532, 12.8055], [10.5969, 12.6995], [10.6021, 12.5209], [10.7244, 12.4516], [10.807, 11.8565], [10.8563, 11.8162], [10.9245, 11.6511], [10.9298, 11.4433], [10.8504, 11.3576], [10.9735, 11.2936], [11.0787, 11.3125], [11.0919, 11.2261], [11.1946, 11.1712], [11.3416, 11.1638], [11.3645, 11.0949], [11.4705, 11.0216], [11.5311, 10.9297], [11.5276, 10.5676], [11.7453, 10.6893], [11.7523, 10.8111], [11.6338, 10.8331], [11.6402, 10.8757], [11.8996, 10.9689], [11.9079, 10.9393], [11.9368, 10.9474], [12.0425, 11.0493], [12.126, 11.0378], [12.162, 11.0621], [12.1032, 11.2478], [12.3221, 11.4509], [12.3735, 11.5498], [12.3, 11.6086], [12.2748, 11.694], [12.2237, 11.6329], [12.17, 11.6661], [12.2702, 11.8149], [12.2663, 11.9805], [12.1924, 12.0423], [12.2328, 12.0571], [12.2868, 12.4246], [12.4028, 12.4966], [12.5039, 12.6913], [12.4974, 12.7652], [12.4313, 12.8521], [12.3787, 12.87], [12.4285, 13.0762], [12.274, 13.0813], [12.2639, 13.1142], [12.1999, 13.1303], [12.16, 13.0979], [12.0384, 13.141], [11.883, 13.2559], [11.4592, 13.3806], [11.3336, 13.3799]]]}}, {"type": "Feature", "properties": {"name": "Jigawa", "level": "state", "osm_relation_id": 3703236, "centroid_lat": 12.227, "centroid_lon": 9.5623, "origin": "derived", "source_url": "https://www.openstreetmap.org/relation/3703236"}, "geometry": {"type": "Polygon", "coordinates": [[[8.3008, 12.5381], [8.3743, 12.4298], [8.4818, 12.597], [8.7191, 12.5666], [8.7376, 12.551], [8.6875, 12.4828], [8.7035, 12.4297], [8.7951, 12.3823], [8.7235, 12.2948], [8.7746, 12.2754], [8.8396, 12.3082], [8.9099, 12.301], [8.9522, 12.1853], [8.915, 12.0762], [9.0741, 12.0735], [9.0956, 12.0244], [9.1987, 12.0828], [9.228, 12.0144], [9.201, 11.9619], [9.222, 11.895], [9.1871, 11.8346], [9.1523, 11.8295], [9.1389, 11.7192], [9.1717, 11.7023], [9.2258, 11.7357], [9.2414, 11.6454], [9.3603, 11.5608], [9.2315, 11.4495], [9.194, 11.3244], [9.3271, 11.3499], [9.4541, 11.2852], [9.5409, 11.3168], [9.5956, 11.2476], [9.6586, 11.2333], [9.8225, 11.2834], [9.8929, 11.1587], [9.8537, 11.1088], [9.8658, 10.9994], [9.9582, 10.9615], [10.1009, 10.9828], [10.134, 10.9475], [10.2203, 10.9468], [10.1559, 11.0046], [10.1599, 11.0526], [10.334, 11.1181], [10.3655, 11.2059], [9.9772, 11.2772], [9.8779, 11.367], [9.8696, 11.4843], [9.7868, 11.4735], [9.8425, 11.5706], [9.8217, 11.6923], [9.7796, 11.7365], [9.7126, 11.7209], [9.6217, 11.7475], [9.6694, 11.7844], [9.6792, 11.8649], [9.8335, 11.8904], [10.1727, 12.0533], [10.1636, 12.143], [10.2659, 12.4333], [10.4166, 12.4719], [10.451, 12.424], [10.6021, 12.5209], [10.5969, 12.6995], [10.545, 12.8149], [10.4563, 12.8041], [10.4019, 12.8231], [10.4138, 12.8537], [10.3139, 12.8492], [10.2905, 12.8155], [10.2813, 12.9883], [10.2397, 13.0276], [10.1037, 12.9663], [9.988, 12.9564], [9.8582, 12.8202], [9.7652, 12.7962], [9.6748, 12.8247], [9.0433, 12.835], [8.9829, 12.8068], [8.9513, 12.7381], [8.8646, 12.669], [8.688, 12.6882], [8.6639, 12.7258], [8.6047, 12.7342], [8.5632, 12.8341], [8.1521, 12.8186], [8.1279, 12.7968], [8.1851, 12.7325], [8.1445, 12.7213], [8.1532, 12.6554], [8.2462, 12.5944], [8.2886, 12.5999], [8.3008, 12.5381]]]}}, {"type": "Feature", "properties": {"name": "Zamfara", "level": "state", "osm_relation_id": 3706956, "centroid_lat": 12.116, "centroid_lon": 6.2266, "origin": "derived", "source_url": "https://www.openstreetmap.org/relation/3706956"}, "geometry": {"type": "Polygon", "coordinates": [[[6.7435, 13.1185], [6.6877, 13.1329], [6.5813, 13.0225], [6.4524, 13.1169], [6.4532, 13.1572], [6.3955, 13.1272], [6.3, 13.1825], [6.2611, 13.1358], [6.0469, 13.0312], [6.0487, 12.9483], [6.0058, 12.9191], [6.0244, 12.7488], [5.8131, 12.8397], [5.734, 12.8268], [5.6347, 12.8829], [5.5882, 12.8041], [5.6863, 12.7139], [5.6774, 12.6319], [5.7231, 12.6206], [5.7172, 12.4869], [5.7726, 12.3835], [5.7506, 12.3239], [5.5667, 12.3515], [5.5411, 12.2728], [5.4697, 12.2526], [5.4542, 12.2967], [5.3116, 12.3558], [5.1167, 12.2834], [4.9529, 12.3144], [4.9504, 12.2313], [4.875, 12.2297], [4.8667, 11.9327], [4.9682, 11.8757], [4.9196, 11.7899], [4.941, 11.7308], [5.2276, 11.7501], [5.2832, 11.7925], [5.3499, 11.7093], [5.4402, 11.7088], [5.4972, 11.6559], [5.5641, 11.6844], [5.6697, 11.6614], [5.7803, 11.6839], [5.8495, 11.5949], [5.8743, 11.4943], [6.0173, 11.4628], [6.0728, 11.3672], [6.1524, 11.3661], [6.1617, 11.2998], [6.0899, 11.1389], [6.0159, 11.138], [6.0528, 11.0432], [6.146, 10.9572], [6.1613, 10.8661], [6.206, 10.8634], [6.2338, 10.9455], [6.3233, 11.0255], [6.4115, 11.0303], [6.4583, 10.9991], [6.6896, 11.0683], [6.7544, 11.2629], [6.8886, 11.3807], [6.904, 11.5532], [6.852, 11.6207], [6.9012, 11.7976], [7.0173, 11.8156], [7.06, 11.7899], [7.1418, 11.8493], [7.1408, 11.9113], [7.2466, 11.9326], [7.1172, 12.094], [7.1504, 12.2316], [7.0933, 12.2826], [7.0445, 12.6589], [6.989, 12.6734], [7.0607, 12.7398], [7.0509, 13.0001], [6.9421, 13.0035], [6.8201, 13.1434], [6.7435, 13.1185]]]}}, {"type": "Feature", "properties": {"name": "Sokoto", "level": "state", "osm_relation_id": 3707368, "centroid_lat": 13.0535, "centroid_lon": 5.3185, "origin": "derived", "source_url": "https://www.openstreetmap.org/relation/3707368"}, "geometry": {"type": "Polygon", "coordinates": [[[5.7347, 13.7989], [5.5298, 13.8856], [5.3507, 13.8346], [5.2811, 13.7557], [5.2178, 13.7378], [4.9496, 13.7345], [4.8738, 13.781], [4.4657, 13.6814], [4.2347, 13.4779], [4.1416, 13.4781], [4.146, 13.2451], [4.5034, 13.1713], [4.4917, 13.1487], [4.623, 13.0701], [4.7022, 13.0732], [4.7316, 13.0528], [4.6777, 13.0456], [4.6462, 12.9486], [4.8068, 12.8195], [4.7302, 12.7052], [4.8119, 12.5036], [4.7491, 12.4309], [4.7539, 12.3637], [4.7092, 12.3649], [4.6298, 12.4329], [4.5205, 12.2524], [4.5633, 12.2332], [4.553, 12.0921], [4.5893, 12.0462], [4.549, 11.7955], [4.4364, 11.7108], [4.3955, 11.751], [4.3626, 11.7325], [4.4273, 11.6706], [4.4192, 11.6142], [4.4871, 11.5345], [4.5228, 11.5303], [4.5472, 11.6343], [4.6668, 11.6676], [4.6599, 11.6877], [4.7272, 11.6977], [4.8152, 11.7661], [4.8498, 11.7351], [4.8895, 11.7502], [4.8939, 11.7092], [4.9431, 11.7268], [4.9196, 11.7899], [4.9682, 11.8757], [4.8667, 11.9327], [4.8617, 12.1596], [4.875, 12.2297], [4.9504, 12.2313], [4.9529, 12.3144], [5.1167, 12.2834], [5.3116, 12.3558], [5.4542, 12.2967], [5.4758, 12.2524], [5.5411, 12.2728], [5.5667, 12.3515], [5.7506, 12.3239], [5.7726, 12.3835], [5.7172, 12.4869], [5.7231, 12.6206], [5.6774, 12.6319], [5.6863, 12.7139], [5.5882, 12.8041], [5.6347, 12.8829], [5.734, 12.8268], [5.8131, 12.8397], [6.0244, 12.7488], [6.0058, 12.9191], [6.0487, 12.9483], [6.0469, 13.0312], [6.2611, 13.1358], [6.3, 13.1825], [6.3955, 13.1272], [6.4532, 13.1572], [6.4524, 13.1169], [6.5813, 13.0225], [6.6877, 13.1329], [6.8201, 13.1434], [6.6967, 13.3393], [6.4279, 13.6004], [6.2773, 13.6765], [6.1555, 13.6448], [5.7347, 13.7989]]]}}, {"type": "Feature", "properties": {"name": "Kebbi", "level": "state", "osm_relation_id": 3707933, "centroid_lat": 11.711, "centroid_lon": 4.5311, "origin": "derived", "source_url": "https://www.openstreetmap.org/relation/3707933"}, "geometry": {"type": "Polygon", "coordinates": [[[6.0159, 11.138], [6.0899, 11.1389], [6.1617, 11.2998], [6.1524, 11.3661], [6.0728, 11.3672], [6.0173, 11.4628], [5.8743, 11.4943], [5.8495, 11.5949], [5.7803, 11.6839], [5.6697, 11.6614], [5.5641, 11.6844], [5.4972, 11.6559], [5.4402, 11.7088], [5.3499, 11.7093], [5.2832, 11.7925], [5.2276, 11.7501], [5.0005, 11.748], [4.8991, 11.7087], [4.8895, 11.7502], [4.8498, 11.7351], [4.8198, 11.7669], [4.7272, 11.6977], [4.6599, 11.6877], [4.6668, 11.6676], [4.5472, 11.6343], [4.5228, 11.5303], [4.4871, 11.5345], [4.4192, 11.6142], [4.4273, 11.6706], [4.3626, 11.7325], [4.3955, 11.751], [4.4364, 11.7108], [4.549, 11.7955], [4.5893, 12.0462], [4.553, 12.0921], [4.5633, 12.2332], [4.5205, 12.2524], [4.6298, 12.4329], [4.7092, 12.3649], [4.7539, 12.3637], [4.7491, 12.4309], [4.8119, 12.5036], [4.7302, 12.7052], [4.8068, 12.8195], [4.6462, 12.9486], [4.6777, 13.0456], [4.7316, 13.0528], [4.7022, 13.0732], [4.623, 13.0701], [4.4917, 13.1487], [4.5034, 13.1713], [4.146, 13.2451], [4.1035, 12.9877], [4.0538, 12.8998], [3.9418, 12.7467], [3.6535, 12.5227], [3.6667, 12.2589], [3.6317, 12.1193], [3.6785, 11.9765], [3.6198, 11.9203], [3.6293, 11.831], [3.6692, 11.8107], [3.681, 11.7547], [3.5764, 11.6687], [3.4763, 11.4379], [3.6937, 11.1292], [3.7251, 11.133], [3.7249, 11.0275], [3.7683, 10.9196], [3.9148, 10.9229], [3.9939, 11.0177], [4.1004, 11.0263], [4.2143, 11.0301], [4.2882, 10.9804], [4.2882, 10.9285], [4.398, 10.8966], [4.5874, 10.9064], [4.6832, 10.9532], [4.7245, 10.8741], [4.6892, 10.6424], [4.6092, 10.5683], [4.5101, 10.5352], [4.4795, 10.4213], [4.483, 10.3287], [4.5687, 10.246], [4.53, 10.1006], [4.6386, 10.1031], [4.7108, 10.1315], [4.6694, 10.2261], [4.7129, 10.3106], [4.8715, 10.2183], [4.9465, 10.2853], [4.932, 10.4395], [4.8534, 10.4603], [4.8187, 10.5071], [4.8095, 10.6979], [4.9456, 10.6894], [5.0267, 10.7505], [5.1012, 10.7622], [5.109, 10.7957], [5.0287, 10.8593], [5.0253, 10.8903], [5.0822, 10.9271], [5.0406, 11.0519], [4.7413, 11.1532], [4.7034, 11.2285], [4.7659, 11.306], [4.8906, 11.3709], [4.9589, 11.3693], [5.0054, 11.2576], [5.0585, 11.2705], [5.0528, 11.2054], [5.0713, 11.2376], [5.2336, 11.2182], [5.3299, 11.3629], [5.389, 11.0375], [5.4584, 10.9532], [5.6568, 10.9669], [5.7958, 11.044], [5.9114, 11.0649], [5.9853, 11.1444], [6.0159, 11.138]]]}}, {"type": "Feature", "properties": {"name": "Kaduna", "level": "state", "osm_relation_id": 3709353, "centroid_lat": 10.3737, "centroid_lon": 7.7107, "origin": "derived", "source_url": "https://www.openstreetmap.org/relation/3709353"}, "geometry": {"type": "Polygon", "coordinates": [[[6.1367, 10.6687], [6.0897, 10.4753], [6.1492, 10.4504], [6.1685, 10.3838], [6.2095, 10.3803], [6.3966, 10.5725], [6.4909, 10.6124], [6.5492, 10.5452], [6.6471, 10.5934], [6.7259, 10.5894], [6.7291, 10.6489], [6.803, 10.6432], [6.8395, 10.5316], [6.8691, 10.5554], [6.919, 10.5308], [6.9535, 10.4822], [6.9263, 10.3701], [7.0202, 10.3541], [7.0508, 10.3171], [7.0082, 10.2424], [6.8853, 10.1508], [6.9012, 10.0764], [6.9523, 10.0476], [7.2324, 10.0433], [7.2778, 10.0164], [7.2913, 9.8003], [7.2047, 9.7583], [7.3056, 9.6277], [7.1965, 9.4985], [7.2328, 9.3184], [7.5091, 9.355], [7.647, 9.4087], [7.7929, 9.2756], [7.9191, 9.3174], [8.0609, 9.2658], [8.0872, 9.2307], [8.0616, 9.0521], [8.0991, 9.0397], [8.1919, 9.0524], [8.2584, 9.1829], [8.3873, 9.1757], [8.5043, 9.0014], [8.5541, 9.0204], [8.6207, 9.1149], [8.6954, 9.3784], [8.6177, 9.4348], [8.555, 9.5806], [8.5989, 9.7279], [8.6439, 9.7754], [8.6861, 10.2112], [8.7993, 10.3029], [8.8235, 10.3833], [8.7492, 10.4407], [8.8069, 10.5904], [8.7111, 10.5434], [8.6439, 10.6305], [8.5063, 10.6505], [8.4812, 10.7159], [8.5716, 10.7483], [8.5685, 10.9075], [8.6073, 11.0712], [8.5196, 11.1149], [8.5187, 11.1623], [8.4647, 11.1696], [8.4338, 11.2266], [8.2979, 11.2342], [8.2644, 11.3132], [8.2068, 11.3187], [8.1229, 11.3867], [8.1501, 11.5192], [7.9957, 11.4916], [7.8738, 11.3821], [7.7209, 11.3659], [7.7062, 11.31], [7.6075, 11.2718], [7.5203, 11.3616], [7.3979, 11.378], [7.3578, 11.2643], [7.2896, 11.2843], [7.1949, 11.2576], [7.2197, 11.1942], [7.1521, 11.1288], [6.9677, 11.2452], [7.0182, 11.311], [7.0062, 11.3618], [6.8886, 11.3807], [6.7544, 11.2629], [6.7337, 11.1476], [6.676, 11.0574], [6.4583, 10.9991], [6.4115, 11.0303], [6.3233, 11.0255], [6.2338, 10.9455], [6.206, 10.8634], [6.1227, 10.8448], [6.0914, 10.7002], [6.1367, 10.6687]]]}}, {"type": "Feature", "properties": {"name": "Kano", "level": "state", "osm_relation_id": 3710302, "centroid_lat": 11.7416, "centroid_lon": 8.5241, "origin": "derived", "source_url": "https://www.openstreetmap.org/relation/3710302"}, "geometry": {"type": "Polygon", "coordinates": [[[8.2462, 12.5944], [8.2886, 12.5999], [8.3743, 12.4298], [8.4818, 12.597], [8.6407, 12.593], [8.6457, 12.5598], [8.73, 12.5591], [8.6875, 12.4828], [8.7035, 12.4297], [8.7951, 12.3823], [8.7235, 12.2948], [8.7746, 12.2754], [8.8396, 12.3082], [8.9099, 12.301], [8.9522, 12.1853], [8.915, 12.0762], [9.0741, 12.0735], [9.0956, 12.0244], [9.1987, 12.0828], [9.228, 12.0144], [9.201, 11.9619], [9.222, 11.895], [9.1871, 11.8346], [9.1523, 11.8295], [9.1389, 11.7192], [9.1717, 11.7023], [9.2258, 11.7357], [9.2414, 11.6454], [9.3603, 11.5608], [9.2315, 11.4495], [9.194, 11.3244], [9.033, 11.2563], [8.8962, 11.1015], [8.8059, 11.0846], [8.7648, 10.8606], [8.8544, 10.6969], [8.8069, 10.5904], [8.7111, 10.5434], [8.6439, 10.6305], [8.5142, 10.6433], [8.4812, 10.7159], [8.5716, 10.7483], [8.5685, 10.9075], [8.6073, 11.0712], [8.5196, 11.1149], [8.5187, 11.1623], [8.4647, 11.1696], [8.4338, 11.2266], [8.2979, 11.2342], [8.2644, 11.3132], [8.2068, 11.3187], [8.1229, 11.3867], [8.1501, 11.5192], [7.9957, 11.4916], [7.8738, 11.3821], [7.7859, 11.3614], [7.6945, 11.4203], [7.6752, 11.4833], [7.7069, 11.595], [7.9023, 11.6532], [7.8262, 11.9533], [7.8798, 12.0443], [7.8416, 12.1518], [7.8645, 12.2807], [7.8924, 12.3303], [8.0024, 12.3936], [8.1567, 12.4403], [8.1691, 12.5457], [8.2462, 12.5944]]]}}, {"type": "Feature", "properties": {"name": "Katsina", "level": "state", "osm_relation_id": 3711481, "centroid_lat": 12.3794, "centroid_lon": 7.6306, "origin": "derived", "source_url": "https://www.openstreetmap.org/relation/3711481"}, "geometry": {"type": "Polygon", "coordinates": [[[7.051, 12.9326], [7.0607, 12.7398], [6.989, 12.6734], [7.0445, 12.6589], [7.0933, 12.2826], [7.1504, 12.2316], [7.1172, 12.094], [7.2466, 11.9326], [7.1408, 11.9113], [7.1418, 11.8493], [7.06, 11.7899], [7.0173, 11.8156], [6.9022, 11.7989], [6.852, 11.6207], [6.904, 11.5532], [6.8886, 11.3807], [7.0136, 11.3492], [6.9677, 11.2452], [7.1521, 11.1288], [7.2197, 11.1942], [7.1949, 11.2576], [7.2896, 11.2843], [7.3578, 11.2643], [7.3979, 11.378], [7.5203, 11.3616], [7.6075, 11.2718], [7.7062, 11.31], [7.718, 11.3631], [7.7505, 11.3696], [7.6752, 11.4833], [7.7049, 11.5925], [7.9023, 11.6532], [7.8262, 11.9533], [7.8798, 12.0443], [7.8416, 12.1518], [7.8645, 12.2807], [7.8924, 12.3303], [8.0024, 12.3936], [8.1567, 12.4403], [8.1691, 12.5457], [8.2462, 12.5944], [8.1532, 12.6554], [8.1445, 12.7213], [8.1849, 12.7351], [8.1278, 12.8011], [8.5632, 12.8341], [8.6047, 12.7342], [8.6639, 12.7258], [8.7229, 12.6699], [8.8199, 12.6678], [8.9232, 12.7071], [8.9829, 12.8068], [9.0473, 12.8162], [8.6597, 12.9364], [8.5968, 13.0233], [8.5022, 13.0742], [8.4162, 13.0572], [8.2495, 13.2139], [8.0692, 13.3138], [7.8452, 13.3414], [7.4394, 13.1149], [7.2216, 13.1291], [7.1216, 13.0205], [7.0509, 13.0001], [7.051, 12.9326]]]}}, {"type": "Feature", "properties": {"name": "Abia", "level": "state", "osm_relation_id": 3713501, "centroid_lat": 5.4519, "centroid_lon": 7.5234, "origin": "derived", "source_url": "https://www.openstreetmap.org/relation/3713501"}, "geometry": {"type": "Polygon", "coordinates": [[[7.9149, 5.5209], [7.9154, 5.6554], [7.8039, 5.745], [7.7863, 5.8049], [7.5396, 5.8511], [7.5334, 6.011], [7.4158, 6.0062], [7.3391, 6.0421], [7.3183, 5.9986], [7.264, 5.9915], [7.2737, 5.9228], [7.3959, 5.9076], [7.3816, 5.7056], [7.4323, 5.6094], [7.2923, 5.3276], [7.2639, 5.2156], [7.2911, 5.16], [7.2412, 4.994], [7.1596, 4.9354], [7.1472, 4.8903], [7.2151, 4.8572], [7.4275, 4.8661], [7.4916, 4.8244], [7.4914, 4.9595], [7.4603, 4.9777], [7.5469, 5.0881], [7.535, 5.3038], [7.6653, 5.3441], [7.6752, 5.3881], [7.6237, 5.3824], [7.6569, 5.4456], [7.7, 5.4315], [7.6959, 5.5183], [7.7572, 5.5105], [7.7928, 5.4398], [7.8653, 5.4184], [7.878, 5.3671], [7.983, 5.3557], [7.9149, 5.5209]]]}}, {"type": "Feature", "properties": {"name": "Akwa Ibom", "level": "state", "osm_relation_id": 3715359, "centroid_lat": 4.8985, "centroid_lon": 7.8529, "origin": "derived", "source_url": "https://www.openstreetmap.org/relation/3715359"}, "geometry": {"type": "Polygon", "coordinates": [[[8.072, 5.1375], [8.143, 4.9502], [8.2107, 4.9078], [8.2474, 4.8255], [8.3235, 4.7579], [8.3478, 4.5988], [8.2876, 4.5307], [7.9306, 4.5309], [7.5985, 4.4653], [7.5253, 4.5488], [7.5457, 4.5792], [7.52, 4.6783], [7.5486, 4.7263], [7.4899, 4.823], [7.4914, 4.9595], [7.4603, 4.9777], [7.5469, 5.0881], [7.535, 5.3038], [7.6489, 5.3249], [7.6776, 5.3823], [7.6243, 5.3801], [7.6364, 5.4253], [7.7, 5.4315], [7.694, 5.5163], [7.7485, 5.5162], [7.7928, 5.4398], [7.884, 5.3845], [7.9017, 5.3356], [7.8426, 5.3352], [7.9129, 5.304], [7.9857, 5.2063], [8.0346, 5.2443], [8.072, 5.1375]]]}}, {"type": "Feature", "properties": {"name": "Anambra", "level": "state", "osm_relation_id": 3715505, "centroid_lat": 6.2214, "centroid_lon": 6.937, "origin": "derived", "source_url": "https://www.openstreetmap.org/relation/3715505"}, "geometry": {"type": "Polygon", "coordinates": [[[7.261, 5.9389], [7.264, 5.9915], [7.3183, 5.9986], [7.3391, 6.0421], [7.2687, 6.0607], [7.1995, 6.2348], [7.151, 6.2326], [7.1622, 6.3047], [7.128, 6.3867], [7.0275, 6.4436], [7.0554, 6.5453], [7.1326, 6.6521], [6.9909, 6.7131], [6.9317, 6.6987], [6.9121, 6.8007], [6.8003, 6.6935], [6.8081, 6.5802], [6.6647, 6.5324], [6.7674, 6.1696], [6.7093, 6.078], [6.7132, 5.9567], [6.634, 5.7303], [6.6683, 5.7218], [6.7912, 5.79], [6.8766, 5.7441], [6.8915, 5.8089], [7.0031, 5.9052], [7.0628, 5.9314], [7.1888, 5.8995], [7.261, 5.9389]]]}}, {"type": "Feature", "properties": {"name": "Bayelsa", "level": "state", "osm_relation_id": 3715844, "centroid_lat": 4.7653, "centroid_lon": 6.0693, "origin": "derived", "source_url": "https://www.openstreetmap.org/relation/3715844"}, "geometry": {"type": "Polygon", "coordinates": [[[6.5309, 5.2845], [6.5666, 5.237], [6.5536, 5.1887], [6.4933, 5.1635], [6.4116, 5.0046], [6.4406, 4.9432], [6.3993, 4.8384], [6.4611, 4.7133], [6.5374, 4.7556], [6.6072, 4.7464], [6.512, 4.6431], [6.5636, 4.5499], [6.5126, 4.4317], [6.5491, 4.3173], [6.4557, 4.2926], [6.0852, 4.2653], [5.9727, 4.3091], [5.6759, 4.5244], [5.4536, 4.8908], [5.3688, 5.1272], [5.4325, 5.144], [5.4681, 5.0937], [5.6578, 5.0112], [5.7909, 5.0851], [5.8657, 5.0688], [5.9332, 5.1647], [6.0308, 5.095], [6.0825, 5.1511], [6.133, 5.1301], [6.1985, 5.1657], [6.2021, 5.2318], [6.291, 5.2341], [6.3064, 5.303], [6.4926, 5.3227], [6.4892, 5.3797], [6.5696, 5.3721], [6.5309, 5.2845]]]}}, {"type": "Feature", "properties": {"name": "Benue", "level": "state", "osm_relation_id": 3716076, "centroid_lat": 7.3356, "centroid_lon": 8.7429, "origin": "derived", "source_url": "https://www.openstreetmap.org/relation/3716076"}, "geometry": {"type": "Polygon", "coordinates": [[[9.5871, 6.4736], [9.5292, 6.4427], [9.4674, 6.4558], [9.4711, 6.5249], [9.3003, 6.7201], [9.035, 6.6473], [8.9692, 6.6937], [8.9948, 6.7543], [8.9745, 6.7889], [8.8484, 6.8656], [8.7209, 6.8963], [8.6008, 6.8558], [8.6416, 6.8188], [8.6207, 6.781], [8.4198, 6.7572], [8.3302, 6.6808], [8.2745, 6.6966], [8.2383, 6.7945], [8.173, 6.7733], [8.1276, 6.7116], [8.0002, 6.712], [7.9625, 6.544], [7.8872, 6.5526], [7.8049, 6.6405], [7.9034, 6.7815], [7.888, 6.8539], [7.8549, 6.8807], [7.6746, 6.8555], [7.5714, 6.9398], [7.5305, 7.0323], [7.6078, 7.0176], [7.5994, 7.0793], [7.6299, 7.1248], [7.7779, 7.1981], [7.8654, 7.3928], [7.7641, 7.4337], [7.7526, 7.7442], [7.6636, 7.9059], [7.6768, 8.0145], [7.877, 7.9834], [8.0724, 7.8774], [8.4032, 7.7662], [8.4054, 7.861], [8.3603, 7.9607], [8.3711, 8.0463], [8.4266, 8.1122], [8.5244, 8.1573], [8.7805, 8.0752], [9.0625, 8.0745], [9.1832, 7.8957], [9.1243, 7.8269], [9.1302, 7.788], [9.3866, 7.8447], [9.5613, 7.8388], [9.6431, 7.7999], [9.8708, 7.5402], [9.8886, 7.4617], [9.824, 7.1723], [9.738, 7.0781], [9.6457, 6.8948], [9.646, 6.7386], [9.5871, 6.4736]]]}}, {"type": "Feature", "properties": {"name": "Cross River", "level": "state", "osm_relation_id": 3716250, "centroid_lat": 5.866, "centroid_lon": 8.5951, "origin": "derived", "source_url": "https://www.openstreetmap.org/relation/3716250"}, "geometry": {"type": "Polygon", "coordinates": [[[8.992, 6.6924], [9.0704, 6.6425], [9.3003, 6.7201], [9.4711, 6.5249], [9.4571, 6.4089], [9.4328, 6.3157], [9.3452, 6.3526], [9.2644, 6.1813], [9.1692, 6.1334], [8.8411, 5.8248], [8.8842, 5.7754], [8.8379, 5.6788], [8.9215, 5.5642], [8.8333, 5.4307], [8.8213, 5.1851], [8.7269, 5.074], [8.6516, 4.9151], [8.6055, 4.8856], [8.6291, 4.8246], [8.5397, 4.7955], [8.5407, 4.7077], [8.5122, 4.6744], [8.3686, 4.7604], [8.3273, 4.7481], [8.2474, 4.8255], [8.2107, 4.9078], [8.1299, 4.9707], [8.0486, 5.2291], [8.0225, 5.2472], [7.9828, 5.2077], [7.9129, 5.304], [7.8409, 5.3375], [7.9017, 5.3356], [7.8804, 5.3668], [7.9875, 5.3626], [7.9079, 5.5358], [7.9177, 5.6496], [7.8866, 5.7001], [7.9218, 5.76], [7.9701, 5.7683], [7.9337, 5.8225], [8.0061, 5.9035], [7.9862, 5.9817], [8.0685, 6.0053], [8.1138, 5.9381], [8.2148, 6.0122], [8.2743, 5.999], [8.302, 6.1081], [8.4007, 6.2166], [8.3992, 6.3538], [8.4544, 6.4279], [8.3883, 6.5498], [8.3195, 6.5808], [8.2925, 6.678], [8.3611, 6.6933], [8.4198, 6.7572], [8.6207, 6.781], [8.6416, 6.8188], [8.6008, 6.8558], [8.7037, 6.8964], [8.8484, 6.8656], [8.9745, 6.7889], [8.9948, 6.7543], [8.9681, 6.6971], [8.992, 6.6924]]]}}, {"type": "Feature", "properties": {"name": "Delta", "level": "state", "osm_relation_id": 3716950, "centroid_lat": 5.7043, "centroid_lon": 5.9337, "origin": "derived", "source_url": "https://www.openstreetmap.org/relation/3716950"}, "geometry": {"type": "Polygon", "coordinates": [[[6.634, 5.7303], [6.7132, 5.9567], [6.7093, 6.078], [6.7674, 6.1696], [6.6689, 6.5012], [6.5233, 6.4875], [6.4127, 6.396], [6.2817, 6.3574], [6.2126, 6.2792], [6.1266, 6.3561], [6.1009, 6.3351], [6.0766, 6.2787], [6.1344, 6.1357], [6.2566, 6.0167], [6.2014, 5.897], [6.0398, 5.7646], [5.9246, 5.7483], [5.8942, 5.7986], [5.9213, 5.8773], [5.812, 5.9839], [5.6689, 6.052], [5.5463, 5.9854], [5.4973, 6.0425], [5.4425, 6.0406], [5.4259, 6.0058], [5.3343, 6.0214], [5.327, 5.9827], [5.3587, 5.9696], [5.2752, 5.9092], [5.2491, 5.9701], [5.2636, 6.0526], [5.2261, 6.0654], [5.2156, 6.147], [5.162, 6.1624], [5.1403, 6.139], [5.1263, 6.1627], [4.9768, 5.8874], [5.1709, 5.5912], [5.1584, 5.5278], [5.2199, 5.447], [5.3145, 5.3932], [5.3683, 5.1322], [5.4325, 5.144], [5.4681, 5.0937], [5.647, 5.012], [5.7909, 5.0851], [5.8657, 5.0688], [5.9353, 5.1652], [6.054, 5.0964], [6.0825, 5.1511], [6.1297, 5.1293], [6.1966, 5.1631], [6.2133, 5.2387], [6.291, 5.2341], [6.3064, 5.303], [6.4954, 5.3248], [6.4749, 5.4084], [6.5358, 5.4392], [6.532, 5.5358], [6.592, 5.5747], [6.634, 5.7303]]]}}, {"type": "Feature", "properties": {"name": "Ebonyi", "level": "state", "osm_relation_id": 3717071, "centroid_lat": 6.2656, "centroid_lon": 8.0153, "origin": "derived", "source_url": "https://www.openstreetmap.org/relation/3717071"}, "geometry": {"type": "Polygon", "coordinates": [[[7.5472, 5.9949], [7.5396, 5.8511], [7.7863, 5.8049], [7.8039, 5.745], [7.8901, 5.6848], [7.9218, 5.76], [7.9701, 5.7683], [7.9337, 5.8225], [8.0061, 5.9035], [7.9862, 5.9817], [8.0685, 6.0053], [8.1138, 5.9381], [8.2148, 6.0122], [8.2822, 6.0047], [8.302, 6.1081], [8.4007, 6.2166], [8.3992, 6.3538], [8.4547, 6.4268], [8.4025, 6.4867], [8.4152, 6.5192], [8.3195, 6.5808], [8.3218, 6.6318], [8.2383, 6.7945], [8.173, 6.7733], [8.1276, 6.7116], [8.0002, 6.712], [7.9494, 6.5322], [7.8558, 6.5808], [7.8318, 6.6385], [7.6989, 6.6307], [7.7491, 6.4473], [7.708, 6.2984], [7.7389, 6.1721], [7.7138, 6.0839], [7.664, 6.0491], [7.7148, 5.946], [7.6644, 5.9301], [7.5472, 5.9949]]]}}, {"type": "Feature", "properties": {"name": "Edo", "level": "state", "osm_relation_id": 3717119, "centroid_lat": 6.6339, "centroid_lon": 5.9309, "origin": "derived", "source_url": "https://www.openstreetmap.org/relation/3717119"}, "geometry": {"type": "Polygon", "coordinates": [[[6.6689, 6.5012], [6.5233, 6.4875], [6.4127, 6.396], [6.2817, 6.3574], [6.2126, 6.2792], [6.113, 6.3491], [6.0766, 6.2787], [6.1344, 6.1357], [6.2566, 6.0167], [6.2014, 5.897], [6.0937, 5.7941], [5.9817, 5.7481], [5.9061, 5.7704], [5.9213, 5.8773], [5.812, 5.9839], [5.6689, 6.052], [5.5463, 5.9854], [5.4973, 6.0425], [5.4425, 6.0406], [5.4259, 6.0058], [5.3343, 6.0214], [5.327, 5.9827], [5.3587, 5.9696], [5.2752, 5.9092], [5.2491, 5.9701], [5.2636, 6.0526], [5.2261, 6.0654], [5.2164, 6.1461], [5.1614, 6.1624], [5.1381, 6.1398], [5.116, 6.2062], [5.0839, 6.1982], [5.0088, 6.2915], [5.026, 6.359], [5.0962, 6.3921], [5.1517, 6.494], [5.1603, 6.562], [5.1144, 6.6211], [5.116, 6.6775], [5.2548, 6.8832], [5.5552, 6.883], [5.5766, 6.704], [5.6293, 6.7459], [5.7026, 6.7361], [5.7672, 6.7919], [5.7892, 6.9924], [5.8966, 7.1716], [5.9175, 7.3337], [5.9867, 7.3552], [5.9542, 7.5152], [6.1188, 7.5914], [6.167, 7.545], [6.1101, 7.4941], [6.1124, 7.4487], [6.1828, 7.4294], [6.2984, 7.4973], [6.3781, 7.3975], [6.4266, 7.4146], [6.4357, 7.3597], [6.4973, 7.333], [6.5114, 7.267], [6.6377, 7.2948], [6.6933, 7.217], [6.7158, 7.1207], [6.673, 6.9357], [6.6108, 6.8221], [6.6689, 6.5012]]]}}, {"type": "Feature", "properties": {"name": "Ekiti", "level": "state", "osm_relation_id": 3717154, "centroid_lat": 7.7225, "centroid_lon": 5.3106, "origin": "derived", "source_url": "https://www.openstreetmap.org/relation/3717154"}, "geometry": {"type": "Polygon", "coordinates": [[[5.6585, 7.8278], [5.729, 7.8283], [5.7916, 7.7821], [5.681, 7.6237], [5.6467, 7.6176], [5.5994, 7.4502], [5.4732, 7.3018], [5.3582, 7.2956], [5.3148, 7.4431], [5.0652, 7.4602], [4.9871, 7.4192], [4.8639, 7.6227], [4.9087, 7.8505], [5.0576, 8.0395], [5.0844, 8.0242], [5.1179, 8.0626], [5.1958, 8.0182], [5.3177, 8.0077], [5.3873, 8.1021], [5.5139, 8.1112], [5.5087, 8.0176], [5.5766, 8.0712], [5.6563, 8.0747], [5.6681, 8.0023], [5.5988, 7.9519], [5.6232, 7.843], [5.6585, 7.8278]]]}}, {"type": "Feature", "properties": {"name": "Enugu", "level": "state", "osm_relation_id": 3717212, "centroid_lat": 6.5354, "centroid_lon": 7.4371, "origin": "derived", "source_url": "https://www.openstreetmap.org/relation/3717212"}, "geometry": {"type": "Polygon", "coordinates": [[[7.8071, 6.6338], [7.9034, 6.7815], [7.888, 6.8539], [7.8549, 6.8807], [7.6746, 6.8555], [7.5714, 6.9398], [7.5305, 7.0323], [7.4556, 7.1037], [7.2413, 6.9713], [7.235, 6.9107], [7.1562, 6.8831], [7.0814, 6.8004], [6.9908, 6.7854], [6.9782, 6.85], [6.9321, 6.7677], [6.9317, 6.6987], [6.9909, 6.7131], [7.1291, 6.6595], [7.0275, 6.4436], [7.128, 6.3867], [7.1622, 6.3047], [7.151, 6.2326], [7.1995, 6.2348], [7.2687, 6.0607], [7.4158, 6.0062], [7.52, 6.02], [7.6919, 5.9246], [7.7112, 5.971], [7.664, 6.0491], [7.7262, 6.1149], [7.708, 6.2984], [7.7514, 6.3855], [7.6989, 6.6307], [7.8071, 6.6338]]]}}, {"type": "Feature", "properties": {"name": "Federal Capital Territory", "level": "state", "osm_relation_id": 3717259, "centroid_lat": 8.907, "centroid_lon": 7.1854, "origin": "derived", "source_url": "https://www.openstreetmap.org/relation/3717259"}, "geometry": {"type": "Polygon", "coordinates": [[[7.4204, 9.3411], [7.3786, 9.3364], [7.2198, 9.1135], [7.0153, 9.269], [6.7881, 9.2702], [6.7785, 8.4575], [7.3124, 8.5008], [7.496, 8.6543], [7.5917, 8.8349], [7.5887, 9.1291], [7.6676, 9.3037], [7.7241, 9.3293], [7.647, 9.4087], [7.4204, 9.3411]]]}}, {"type": "Feature", "properties": {"name": "Imo", "level": "state", "osm_relation_id": 3717825, "centroid_lat": 5.5716, "centroid_lon": 7.0589, "origin": "derived", "source_url": "https://www.openstreetmap.org/relation/3717825"}, "geometry": {"type": "Polygon", "coordinates": [[[6.6584, 5.6249], [6.6391, 5.4934], [6.7414, 5.4941], [6.7558, 5.3235], [6.8182, 5.258], [6.904, 5.2195], [7.04, 5.2496], [7.2421, 5.1959], [7.4323, 5.6094], [7.3816, 5.7056], [7.3959, 5.9076], [7.261, 5.9389], [7.1888, 5.8995], [7.053, 5.9295], [6.8915, 5.8089], [6.8795, 5.7455], [6.7912, 5.79], [6.6883, 5.7422], [6.6584, 5.6249]]]}}, {"type": "Feature", "properties": {"name": "Kogi", "level": "state", "osm_relation_id": 3717971, "centroid_lat": 7.7313, "centroid_lon": 6.6921, "origin": "derived", "source_url": "https://www.openstreetmap.org/relation/3717971"}, "geometry": {"type": "Polygon", "coordinates": [[[7.7037, 7.1649], [7.7829, 7.2052], [7.8663, 7.4041], [7.7641, 7.4337], [7.7526, 7.7442], [7.6636, 7.9059], [7.6772, 8.0166], [7.5053, 8.0472], [7.3056, 8.0256], [6.9636, 7.8793], [7.0027, 8.167], [6.9346, 8.3104], [6.9842, 8.4594], [6.8279, 8.4575], [6.8367, 8.3913], [6.7512, 8.3049], [6.7614, 8.2727], [6.72, 8.2746], [6.6913, 8.183], [6.6083, 8.3141], [6.4529, 8.4483], [6.3587, 8.6846], [6.2466, 8.7388], [6.2085, 8.7324], [6.1699, 8.663], [6.1113, 8.4312], [6.078, 8.3979], [5.7047, 8.4458], [5.5132, 8.5385], [5.3228, 8.3444], [5.3567, 8.2747], [5.4184, 8.2838], [5.4223, 8.2281], [5.5371, 8.2055], [5.498, 8.1147], [5.5059, 8.0187], [5.5766, 8.0712], [5.6597, 8.0698], [5.6399, 8.0538], [5.6681, 8.0023], [5.6455, 7.963], [5.5988, 7.9585], [5.6232, 7.843], [5.729, 7.8283], [5.8164, 7.7278], [5.9287, 7.7466], [5.9376, 7.6488], [6.0042, 7.5292], [6.0435, 7.5774], [6.1188, 7.5914], [6.167, 7.545], [6.1101, 7.4941], [6.1124, 7.4487], [6.1828, 7.4294], [6.295, 7.4985], [6.3781, 7.3975], [6.4266, 7.4146], [6.4357, 7.3597], [6.4973, 7.333], [6.5114, 7.267], [6.6377, 7.2948], [6.7158, 7.1357], [6.673, 6.9357], [6.6108, 6.8221], [6.6647, 6.5324], [6.8081, 6.5802], [6.8003, 6.6935], [6.8968, 6.7924], [6.9396, 6.7736], [6.9632, 6.8445], [6.9868, 6.8445], [6.9908, 6.7854], [7.0814, 6.8004], [7.1562, 6.8831], [7.235, 6.9107], [7.2413, 6.9713], [7.3847, 7.0517], [7.3973, 7.0903], [7.4697, 7.0997], [7.5305, 7.0323], [7.6078, 7.0176], [7.6019, 7.0906], [7.7037, 7.1649]]]}}, {"type": "Feature", "properties": {"name": "Kwara", "level": "state", "osm_relation_id": 3718090, "centroid_lat": 8.9671, "centroid_lon": 4.3824, "origin": "derived", "source_url": "https://www.openstreetmap.org/relation/3718090"}, "geometry": {"type": "Polygon", "coordinates": [[[3.4162, 8.8601], [3.72, 9.0131], [3.7707, 9.1468], [3.863, 9.1883], [3.9214, 9.1729], [4.0121, 9.0346], [4.2105, 8.97], [4.3256, 8.9946], [4.3349, 8.9577], [4.195, 8.8163], [4.1904, 8.7533], [4.3917, 8.304], [4.4771, 8.2183], [4.5056, 8.092], [4.6656, 8.0433], [4.83, 8.0555], [4.8541, 8.0955], [4.8872, 8.0909], [4.9608, 8.0524], [4.9696, 8.0174], [5.0397, 8.0719], [5.0757, 8.025], [5.1277, 8.063], [5.1958, 8.0182], [5.3324, 8.0096], [5.3712, 8.0965], [5.498, 8.1107], [5.5371, 8.2055], [5.4223, 8.2281], [5.4184, 8.2838], [5.3567, 8.2747], [5.3215, 8.3411], [5.5132, 8.5385], [5.7047, 8.4458], [6.078, 8.3979], [6.2085, 8.7324], [6.1495, 8.7207], [6.0845, 8.7606], [5.7958, 8.7419], [5.7282, 8.82], [5.642, 8.8354], [5.5254, 8.9401], [5.209, 9.0351], [5.1595, 9.107], [5.0163, 9.2053], [4.7853, 9.1353], [4.7375, 9.2689], [4.6393, 9.3082], [4.3506, 9.5884], [4.1529, 9.8621], [4.1188, 9.8555], [4.1149, 9.8817], [4.0835, 9.8516], [4.0219, 9.8568], [4.0023, 9.9066], [3.9362, 9.9161], [3.9705, 9.9488], [3.9345, 9.9668], [3.9492, 9.9914], [3.887, 9.9881], [3.9034, 10.0192], [3.818, 10.0668], [3.7751, 10.0333], [3.6772, 10.1683], [3.6145, 10.0788], [3.6005, 9.962], [3.5584, 9.8931], [3.3523, 9.8274], [3.3235, 9.7716], [3.3583, 9.7032], [3.3139, 9.6594], [3.2672, 9.6592], [3.1614, 9.4974], [3.1331, 9.4411], [3.1579, 9.2839], [3.0883, 9.1019], [2.7797, 9.0672], [2.7663, 8.812], [2.7293, 8.7843], [2.761, 8.7081], [2.7348, 8.6636], [2.7569, 8.5757], [2.8024, 8.6104], [2.9207, 8.6119], [3.1636, 8.8086], [3.2374, 8.7825], [3.4162, 8.8601]]]}}, {"type": "Feature", "properties": {"name": "Lagos", "level": "state", "osm_relation_id": 3718182, "centroid_lat": 6.5173, "centroid_lon": 3.5904, "origin": "derived", "source_url": "https://www.openstreetmap.org/relation/3718182"}, "geometry": {"type": "Polygon", "coordinates": [[[2.8929, 6.5019], [3.1795, 6.5098], [3.2629, 6.6966], [3.3767, 6.6385], [3.4577, 6.6394], [3.4611, 6.6855], [4.0915, 6.679], [4.0505, 6.6192], [4.0649, 6.5624], [4.103, 6.5459], [4.1622, 6.5922], [4.2118, 6.5817], [4.2223, 6.5377], [4.1562, 6.4988], [4.1611, 6.4747], [4.2453, 6.4345], [4.3372, 6.4395], [4.3509, 6.3667], [3.7475, 6.4267], [2.707, 6.3726], [2.7067, 6.4514], [2.8428, 6.444], [2.8929, 6.5019]]]}}, {"type": "Feature", "properties": {"name": "Niger", "level": "state", "osm_relation_id": 3718384, "centroid_lat": 9.9241, "centroid_lon": 5.5928, "origin": "derived", "source_url": "https://www.openstreetmap.org/relation/3718384"}, "geometry": {"type": "Polygon", "coordinates": [[[5.1012, 10.7622], [5.0267, 10.7505], [4.9456, 10.6894], [4.807, 10.6929], [4.8187, 10.5071], [4.8534, 10.4603], [4.932, 10.4395], [4.9465, 10.2853], [4.8715, 10.2183], [4.7129, 10.3106], [4.6694, 10.2261], [4.7108, 10.1315], [4.53, 10.1006], [4.5687, 10.246], [4.483, 10.3287], [4.4856, 10.4698], [4.5101, 10.5352], [4.6092, 10.5683], [4.6892, 10.6424], [4.7245, 10.8741], [4.6892, 10.9456], [4.6568, 10.9554], [4.5874, 10.9064], [4.398, 10.8966], [4.2882, 10.9285], [4.2882, 10.9804], [4.2143, 11.0301], [3.9939, 11.0177], [3.9148, 10.9229], [3.7683, 10.9196], [3.7457, 10.8171], [3.7803, 10.7351], [3.8342, 10.6989], [3.8436, 10.5876], [3.788, 10.409], [3.6835, 10.4616], [3.6022, 10.4123], [3.5766, 10.2723], [3.5972, 10.2256], [3.6775, 10.1814], [3.7751, 10.0333], [3.818, 10.0668], [3.9034, 10.0192], [3.887, 9.9881], [3.9492, 9.9914], [3.9345, 9.9668], [3.9705, 9.9488], [3.9362, 9.9161], [4.0023, 9.9066], [4.0219, 9.8568], [4.0835, 9.8516], [4.1149, 9.8817], [4.1188, 9.8555], [4.1529, 9.8621], [4.3506, 9.5884], [4.6393, 9.3082], [4.7375, 9.2689], [4.7853, 9.1353], [5.0163, 9.2053], [5.1595, 9.107], [5.209, 9.0351], [5.5254, 8.9401], [5.642, 8.8354], [5.7282, 8.82], [5.7958, 8.7419], [6.0845, 8.7606], [6.1495, 8.7207], [6.3026, 8.7278], [6.3983, 8.6294], [6.4529, 8.4483], [6.6083, 8.3141], [6.6913, 8.183], [6.72, 8.2746], [6.7614, 8.2727], [6.7512, 8.3049], [6.8377, 8.3968], [6.8279, 8.4575], [6.7785, 8.4575], [6.7881, 9.2702], [7.0153, 9.269], [7.2198, 9.1135], [7.3786, 9.3364], [7.2328, 9.3184], [7.1967, 9.4756], [7.2087, 9.5402], [7.3056, 9.6277], [7.2047, 9.7583], [7.2913, 9.8003], [7.2778, 10.0164], [7.2324, 10.0433], [6.9523, 10.0476], [6.9012, 10.0764], [6.8853, 10.1508], [7.0082, 10.2424], [7.0508, 10.3171], [7.0202, 10.3541], [6.9263, 10.3701], [6.9535, 10.4822], [6.9126, 10.538], [6.8691, 10.5554], [6.8395, 10.5316], [6.803, 10.6432], [6.7291, 10.6489], [6.7259, 10.5894], [6.6471, 10.5934], [6.5492, 10.5452], [6.5066, 10.6095], [6.4391, 10.5926], [6.2095, 10.3803], [6.1685, 10.3838], [6.0865, 10.5155], [6.1275, 10.5693], [6.1371, 10.6697], [6.0914, 10.7002], [6.0994, 10.7709], [6.1227, 10.8448], [6.1644, 10.8729], [6.1596, 10.9259], [6.0062, 11.142], [5.9114, 11.0649], [5.7958, 11.044], [5.6568, 10.9669], [5.4584, 10.9532], [5.389, 11.0375], [5.3299, 11.3629], [5.2336, 11.2182], [5.0713, 11.2376], [5.0576, 11.2046], [5.0585, 11.2705], [5.0119, 11.252], [4.9589, 11.3693], [4.8906, 11.3709], [4.7659, 11.306], [4.7053, 11.2211], [4.7886, 11.1189], [5.0406, 11.0519], [5.0822, 10.9271], [5.0253, 10.8903], [5.0287, 10.8593], [5.0998, 10.8083], [5.1012, 10.7622]]]}}, {"type": "Feature", "properties": {"name": "Ogun", "level": "state", "osm_relation_id": 3718463, "centroid_lat": 6.9958, "centroid_lon": 3.4767, "origin": "derived", "source_url": "https://www.openstreetmap.org/relation/3718463"}, "geometry": {"type": "Polygon", "coordinates": [[[3.1039, 6.4995], [3.2038, 6.5296], [3.1968, 6.5762], [3.2629, 6.6966], [3.3767, 6.6385], [3.4577, 6.6394], [3.4611, 6.6855], [4.0915, 6.679], [4.0505, 6.6192], [4.0649, 6.5624], [4.1095, 6.5469], [4.1663, 6.5934], [4.2287, 6.5576], [4.1611, 6.4747], [4.2453, 6.4345], [4.3372, 6.4395], [4.3509, 6.3667], [4.4323, 6.3422], [4.4974, 6.3592], [4.5044, 6.3102], [4.5567, 6.2763], [4.5984, 6.3662], [4.4731, 6.3932], [4.5352, 6.4083], [4.5643, 6.499], [4.6052, 6.4922], [4.597, 6.6293], [4.547, 6.6134], [4.4966, 6.5051], [4.4581, 6.6027], [4.3761, 6.6632], [4.4182, 6.7604], [4.5476, 6.8405], [4.5616, 6.9883], [4.6096, 7.0311], [4.3904, 6.9809], [4.3686, 7.0591], [4.2975, 7.0906], [4.1979, 7.0492], [4.1689, 7.1741], [3.9389, 7.0839], [3.7312, 7.0806], [3.7944, 7.1395], [3.7623, 7.3009], [3.7143, 7.3048], [3.7071, 7.4473], [3.5362, 7.4465], [3.4744, 7.3889], [3.4459, 7.4938], [3.3931, 7.4558], [3.3194, 7.314], [3.2491, 7.3675], [3.1553, 7.3782], [3.0822, 7.4386], [3.0605, 7.5244], [2.9788, 7.5912], [3.0261, 7.7586], [3.0066, 7.8298], [2.9829, 7.8581], [2.9146, 7.7506], [2.8795, 7.8229], [2.9198, 7.9238], [2.7847, 7.9493], [2.6905, 7.8553], [2.7336, 7.7666], [2.717, 7.6121], [2.7957, 7.4796], [2.7939, 7.4297], [2.7448, 7.4243], [2.7728, 7.133], [2.7405, 7.105], [2.7614, 7.0434], [2.7125, 6.9514], [2.742, 6.9265], [2.7349, 6.7843], [2.7921, 6.7483], [2.7294, 6.6369], [2.7508, 6.5702], [2.706, 6.5198], [2.7061, 6.4519], [2.8428, 6.444], [2.9094, 6.5044], [3.1039, 6.4995]]]}}, {"type": "Feature", "properties": {"name": "Ondo", "level": "state", "osm_relation_id": 3718605, "centroid_lat": 6.9128, "centroid_lon": 5.1513, "origin": "derived", "source_url": "https://www.openstreetmap.org/relation/3718605"}, "geometry": {"type": "MultiPolygon", "coordinates": [[[[4.9768, 5.8874], [5.1307, 6.1686], [5.0112, 6.2858], [5.0254, 6.3581], [5.0962, 6.3921], [5.1517, 6.494], [5.1603, 6.562], [5.1144, 6.6211], [5.116, 6.6775], [5.2548, 6.8832], [5.5552, 6.883], [5.5766, 6.704], [5.6293, 6.7459], [5.7026, 6.7361], [5.7708, 6.7965], [5.7892, 6.9924], [5.8966, 7.1716], [5.9175, 7.3337], [5.9867, 7.3552], [5.9867, 7.4503], [5.9488, 7.496], [6.0041, 7.5356], [5.9376, 7.6488], [5.9287, 7.7466], [5.773, 7.7473], [5.7165, 7.701], [5.6246, 7.5824], [5.5994, 7.4502], [5.4815, 7.3046], [5.3582, 7.2956], [5.3148, 7.4431], [5.0588, 7.4592], [4.9897, 7.3776], [4.7784, 7.357], [4.7421, 7.2146], [4.709, 7.1646], [4.6719, 7.1662], [4.5643, 6.9957], [4.5476, 6.8405], [4.3897, 6.7159], [4.38, 6.6392], [4.4543, 6.6073], [4.4966, 6.5051], [4.5645, 6.6338], [4.6008, 6.6183], [4.6052, 6.4922], [4.5643, 6.499], [4.5352, 6.4083], [4.4747, 6.3883], [4.5967, 6.3683], [4.5567, 6.2763], [4.9768, 5.8874]]], [[[4.5044, 6.3102], [4.4323, 6.3422], [4.4974, 6.3592], [4.5044, 6.3102]]]]}}, {"type": "Feature", "properties": {"name": "Osun", "level": "state", "osm_relation_id": 3718720, "centroid_lat": 7.5604, "centroid_lon": 4.5173, "origin": "derived", "source_url": "https://www.openstreetmap.org/relation/3718720"}, "geometry": {"type": "Polygon", "coordinates": [[[4.9671, 8.02], [4.9608, 8.0524], [4.8872, 8.0909], [4.8541, 8.0955], [4.83, 8.0555], [4.6656, 8.0433], [4.6217, 8.0757], [4.5607, 8.054], [4.5434, 7.9651], [4.4512, 7.9555], [4.4365, 7.8798], [4.401, 7.8984], [4.3709, 7.8485], [4.2763, 7.9712], [4.1913, 7.9102], [4.197, 7.8653], [4.0898, 7.8677], [4.0529, 7.675], [4.1439, 7.5876], [4.1654, 7.5079], [4.1217, 7.4287], [4.1271, 7.277], [4.0715, 7.1373], [4.1689, 7.1741], [4.2008, 7.0474], [4.2975, 7.0906], [4.3686, 7.0591], [4.3904, 6.9809], [4.4889, 6.9918], [4.5163, 7.0226], [4.6096, 7.0311], [4.6268, 7.1041], [4.7467, 7.223], [4.7784, 7.357], [5.0035, 7.3888], [4.8639, 7.6227], [4.9087, 7.8505], [5.0565, 8.0311], [5.0397, 8.0719], [4.9671, 8.02]]]}}, {"type": "Feature", "properties": {"name": "Adamawa", "level": "state", "osm_relation_id": 3720358, "centroid_lat": 9.3298, "centroid_lon": 12.4033, "origin": "derived", "source_url": "https://www.openstreetmap.org/relation/3720358"}, "geometry": {"type": "Polygon", "coordinates": [[[12.2313, 8.1537], [12.2555, 8.1763], [12.2631, 8.4459], [12.3395, 8.4303], [12.3421, 8.4601], [12.4465, 8.5161], [12.4314, 8.6204], [12.4996, 8.6423], [12.5752, 8.6138], [12.6757, 8.6477], [12.7207, 8.7631], [12.784, 8.7454], [12.8189, 8.8304], [12.8228, 8.9717], [12.901, 9.1142], [12.8844, 9.1484], [12.9259, 9.3349], [12.8473, 9.3719], [13.0347, 9.5066], [13.2271, 9.5825], [13.2595, 9.7733], [13.302, 9.8265], [13.2433, 9.8635], [13.2363, 9.9101], [13.2881, 9.9786], [13.2469, 10.0346], [13.3438, 10.1166], [13.4699, 10.1608], [13.4786, 10.3288], [13.5786, 10.5368], [13.5472, 10.6124], [13.7296, 10.9222], [13.6132, 10.9494], [13.4752, 10.9028], [13.3409, 10.9264], [13.3359, 10.8001], [13.2423, 10.5795], [13.2132, 10.4052], [12.8753, 10.5735], [12.7363, 10.5764], [12.6525, 10.439], [12.5788, 10.4921], [12.555, 10.3717], [12.4436, 10.3171], [12.2954, 10.3082], [12.0847, 10.0376], [11.8449, 10.0324], [11.8509, 9.7864], [11.6546, 9.6369], [11.4738, 9.6007], [11.4296, 9.5496], [11.5259, 9.4078], [11.5963, 9.3792], [11.6477, 9.3054], [11.7001, 9.2101], [11.7068, 9.0745], [11.8565, 9.0026], [11.9034, 8.8915], [11.7842, 8.6298], [11.786, 8.5222], [11.6513, 8.4264], [11.523, 8.215], [11.3463, 8.0415], [11.4365, 7.8211], [11.5001, 7.7882], [11.5345, 7.9043], [11.5604, 7.911], [11.6592, 7.8513], [11.7713, 7.7232], [11.7645, 7.6537], [11.8147, 7.6192], [11.7616, 7.5998], [11.7575, 7.4992], [11.8738, 7.3543], [11.9281, 7.3938], [11.9228, 7.4781], [12.0251, 7.5279], [11.9988, 7.6781], [12.0981, 7.8477], [12.1948, 7.9412], [12.1926, 8.1081], [12.2313, 8.1537]]]}}, {"type": "Feature", "properties": {"name": "Gombe", "level": "state", "osm_relation_id": 3720422, "centroid_lat": 10.3774, "centroid_lon": 11.1819, "origin": "derived", "source_url": "https://www.openstreetmap.org/relation/3720422"}, "geometry": {"type": "Polygon", "coordinates": [[[11.515, 10.9659], [11.3645, 11.0949], [11.3416, 11.1638], [11.1578, 11.1857], [11.0919, 11.2261], [11.0905, 11.3014], [11.0369, 11.3065], [10.8637, 11.0801], [10.762, 11.1171], [10.6186, 10.9945], [10.603, 10.9624], [10.643, 10.8605], [10.5763, 10.8856], [10.4731, 10.6795], [10.589, 10.5283], [10.7658, 10.4776], [10.8332, 10.418], [10.8262, 10.2937], [10.8572, 10.2357], [10.8152, 10.1288], [10.7007, 10.1123], [10.6845, 10.0806], [10.9285, 9.9098], [10.9515, 9.6836], [11.0082, 9.5521], [11.2271, 9.5694], [11.4202, 9.546], [11.4738, 9.6007], [11.6546, 9.6369], [11.8579, 9.7955], [11.8449, 10.0324], [11.7641, 10.0281], [11.7444, 10.0934], [11.6959, 10.0736], [11.6672, 10.1976], [11.5293, 10.3136], [11.6311, 10.4961], [11.5833, 10.5939], [11.5127, 10.5853], [11.5391, 10.851], [11.515, 10.9659]]]}}, {"type": "Feature", "properties": {"name": "Nasarawa", "level": "state", "osm_relation_id": 3720495, "centroid_lat": 8.4991, "centroid_lon": 8.1945, "origin": "derived", "source_url": "https://www.openstreetmap.org/relation/3720495"}, "geometry": {"type": "Polygon", "coordinates": [[[8.6411, 9.1578], [8.5333, 9.0044], [8.5043, 9.0014], [8.3815, 9.1774], [8.2584, 9.1829], [8.1919, 9.0524], [8.0991, 9.0397], [8.0616, 9.0521], [8.0872, 9.2307], [8.0609, 9.2658], [7.9191, 9.3174], [7.8084, 9.2728], [7.7241, 9.3293], [7.6676, 9.3037], [7.5887, 9.1291], [7.5917, 8.8349], [7.4793, 8.6328], [7.3424, 8.5104], [6.9842, 8.4594], [6.9346, 8.3104], [7.0027, 8.167], [6.9636, 7.8793], [7.2538, 8.015], [7.5053, 8.0472], [7.877, 7.9834], [8.0724, 7.8774], [8.4032, 7.7662], [8.3635, 8.0166], [8.3905, 8.0779], [8.5037, 8.1582], [8.7805, 8.0752], [8.9108, 8.0563], [9.057, 8.0776], [9.1791, 7.9081], [9.3355, 7.9855], [9.4154, 8.0619], [9.3869, 8.1488], [9.4118, 8.1769], [9.3234, 8.2535], [9.3633, 8.3405], [9.6097, 8.2913], [9.6228, 8.3836], [9.3553, 8.483], [9.1749, 8.4672], [9.1324, 8.4287], [9.0494, 8.5197], [8.9825, 8.5273], [8.9834, 8.5966], [8.8919, 8.7404], [8.9588, 8.8495], [9.0235, 8.8659], [9.0719, 8.9453], [9.0627, 9.0182], [8.7982, 9.0316], [8.765, 9.1652], [8.6578, 9.2077], [8.6411, 9.1578]]]}}, {"type": "Feature", "properties": {"name": "Oyo", "level": "state", "osm_relation_id": 3720554, "centroid_lat": 8.1597, "centroid_lon": 3.6161, "origin": "derived", "source_url": "https://www.openstreetmap.org/relation/3720554"}, "geometry": {"type": "Polygon", "coordinates": [[[3.4162, 8.8601], [3.2374, 8.7825], [3.1636, 8.8086], [2.9207, 8.6119], [2.8024, 8.6104], [2.7569, 8.5757], [2.76, 8.4878], [2.7085, 8.4224], [2.6931, 8.3214], [2.7554, 8.1881], [2.6783, 7.8744], [2.6905, 7.8553], [2.794, 7.9517], [2.9175, 7.9261], [2.8795, 7.8229], [2.9146, 7.7506], [2.9898, 7.8552], [3.0261, 7.7586], [2.9788, 7.5912], [3.0605, 7.5244], [3.0822, 7.4386], [3.1553, 7.3782], [3.2491, 7.3675], [3.3194, 7.314], [3.3931, 7.4558], [3.4459, 7.4938], [3.4744, 7.3889], [3.5362, 7.4465], [3.7071, 7.4473], [3.7143, 7.3048], [3.7623, 7.3009], [3.7944, 7.1395], [3.7276, 7.0836], [3.9389, 7.0839], [3.9976, 7.1262], [4.0851, 7.1319], [4.0798, 7.1956], [4.1271, 7.277], [4.1217, 7.4287], [4.1654, 7.5079], [4.1439, 7.5876], [4.0529, 7.675], [4.0898, 7.8677], [4.197, 7.8653], [4.1913, 7.9102], [4.2763, 7.9712], [4.3709, 7.8485], [4.401, 7.8984], [4.4365, 7.8798], [4.4431, 7.949], [4.5434, 7.9651], [4.563, 8.009], [4.569, 8.0548], [4.5056, 8.092], [4.4771, 8.2183], [4.3917, 8.304], [4.1904, 8.7533], [4.2211, 8.8609], [4.3349, 8.9808], [4.2105, 8.97], [4.0121, 9.0346], [3.9214, 9.1729], [3.863, 9.1883], [3.7707, 9.1468], [3.72, 9.0131], [3.4162, 8.8601]]]}}, {"type": "Feature", "properties": {"name": "Plateau", "level": "state", "osm_relation_id": 3720611, "centroid_lat": 9.2243, "centroid_lon": 9.5174, "origin": "derived", "source_url": "https://www.openstreetmap.org/relation/3720611"}, "geometry": {"type": "Polygon", "coordinates": [[[8.5778, 9.4992], [8.6423, 9.4011], [8.6954, 9.3784], [8.6578, 9.2077], [8.765, 9.1652], [8.7982, 9.0316], [9.0627, 9.0182], [9.0719, 8.9453], [9.0162, 8.8579], [8.9588, 8.8495], [8.8921, 8.7329], [8.9834, 8.5966], [8.979, 8.5306], [9.0494, 8.5197], [9.1324, 8.4287], [9.1749, 8.4672], [9.3553, 8.483], [9.5592, 8.4015], [9.7567, 8.3673], [9.9501, 8.4989], [10.3805, 8.9145], [10.4638, 8.9632], [10.5967, 8.9761], [10.6374, 9.0558], [10.5599, 9.3511], [10.5661, 9.4653], [10.4889, 9.5526], [10.2815, 9.6631], [10.1625, 9.652], [10.1304, 9.722], [10.0578, 9.7598], [9.9657, 9.7738], [9.9917, 9.6457], [9.9623, 9.6127], [9.8536, 9.6067], [9.6869, 9.5208], [9.5508, 9.5052], [9.5087, 9.54], [9.4624, 9.5012], [9.4083, 9.5046], [9.2846, 9.6361], [9.2793, 9.7093], [9.2358, 9.6919], [9.1504, 9.748], [9.2536, 9.8086], [9.2869, 9.8795], [9.2471, 10.0322], [8.9565, 10.0232], [8.9782, 10.1805], [8.9297, 10.2285], [8.9549, 10.3088], [8.9298, 10.3521], [8.8263, 10.3827], [8.7993, 10.3029], [8.6861, 10.2112], [8.6439, 9.7754], [8.5989, 9.7279], [8.555, 9.5806], [8.5778, 9.4992]]]}}, {"type": "Feature", "properties": {"name": "Rivers", "level": "state", "osm_relation_id": 3720743, "centroid_lat": 4.8351, "centroid_lon": 6.9123, "origin": "derived", "source_url": "https://www.openstreetmap.org/relation/3720743"}, "geometry": {"type": "Polygon", "coordinates": [[[7.3394, 4.4309], [7.6041, 4.4616], [7.5253, 4.5488], [7.5457, 4.5792], [7.52, 4.6783], [7.5486, 4.7263], [7.5276, 4.78], [7.4275, 4.8661], [7.2151, 4.8572], [7.1472, 4.8903], [7.1596, 4.9354], [7.2412, 4.994], [7.2813, 5.2016], [7.04, 5.2496], [6.904, 5.2195], [6.8036, 5.2693], [6.7558, 5.3235], [6.7414, 5.4941], [6.6391, 5.4934], [6.6738, 5.721], [6.634, 5.7303], [6.592, 5.5747], [6.532, 5.5358], [6.5358, 5.4392], [6.4749, 5.4084], [6.4892, 5.3797], [6.5696, 5.3721], [6.5309, 5.2845], [6.5666, 5.237], [6.5536, 5.1887], [6.4858, 5.1534], [6.4116, 5.0046], [6.4406, 4.9432], [6.3984, 4.8645], [6.4611, 4.7133], [6.5374, 4.7556], [6.6072, 4.7464], [6.512, 4.6431], [6.5636, 4.5499], [6.5141, 4.3689], [6.5491, 4.3173], [6.6454, 4.308], [6.9118, 4.3729], [6.999, 4.3671], [7.1029, 4.4485], [7.1389, 4.4374], [7.1365, 4.3724], [7.3394, 4.4309]]]}}, {"type": "Feature", "properties": {"name": "Taraba", "level": "state", "osm_relation_id": 3720850, "centroid_lat": 8.0171, "centroid_lon": 10.781, "origin": "derived", "source_url": "https://www.openstreetmap.org/relation/3720850"}, "geometry": {"type": "Polygon", "coordinates": [[[11.4416, 9.5332], [11.2271, 9.5694], [11.0204, 9.5495], [10.9749, 9.5929], [10.8382, 9.6185], [10.6776, 9.5403], [10.5807, 9.5602], [10.5163, 9.5106], [10.5767, 9.4465], [10.5599, 9.3511], [10.6358, 9.1267], [10.5967, 8.9761], [10.4202, 8.944], [9.8694, 8.4313], [9.7567, 8.3673], [9.6185, 8.3873], [9.6097, 8.2913], [9.3633, 8.3405], [9.3234, 8.2535], [9.4118, 8.1769], [9.3869, 8.1488], [9.4154, 8.0619], [9.3355, 7.9855], [9.1791, 7.9081], [9.1203, 7.7933], [9.3866, 7.8447], [9.6015, 7.8295], [9.8847, 7.5079], [9.8346, 7.1994], [9.6457, 6.8948], [9.6015, 6.5291], [9.7058, 6.5119], [9.7795, 6.7946], [9.862, 6.7753], [10.1505, 7.0384], [10.2155, 6.8894], [10.4889, 6.8999], [10.5414, 6.9397], [10.5716, 7.1622], [10.6246, 7.0495], [10.8381, 6.9383], [10.8163, 6.8438], [10.9107, 6.7659], [10.9164, 6.7091], [10.9931, 6.687], [11.058, 6.7154], [11.095, 6.6815], [11.0978, 6.5199], [11.1376, 6.5301], [11.1666, 6.5], [11.1978, 6.5376], [11.2792, 6.5381], [11.3581, 6.5022], [11.3546, 6.5247], [11.4278, 6.5307], [11.4172, 6.5981], [11.4958, 6.5995], [11.554, 6.6667], [11.5952, 6.8014], [11.5533, 6.8583], [11.6069, 6.9136], [11.6175, 6.9766], [11.7206, 7.0475], [11.7747, 7.043], [11.8025, 7.0827], [11.8676, 7.0785], [11.8571, 7.1727], [11.9041, 7.2474], [11.8531, 7.4086], [11.7575, 7.4992], [11.7616, 7.5998], [11.8147, 7.6192], [11.7645, 7.6537], [11.7713, 7.7232], [11.5886, 7.909], [11.5351, 7.905], [11.501, 7.789], [11.4615, 7.7889], [11.3415, 8.0187], [11.523, 8.215], [11.6513, 8.4264], [11.786, 8.5222], [11.7842, 8.6298], [11.9033, 8.8698], [11.8565, 9.0026], [11.7068, 9.0745], [11.7001, 9.2101], [11.6477, 9.3054], [11.5963, 9.3792], [11.5259, 9.4078], [11.4416, 9.5332]]]}}, {"type": "Feature", "properties": {"name": "Borno", "level": "state", "osm_relation_id": 3721167, "centroid_lat": 11.8826, "centroid_lon": 13.1476, "origin": "derived", "source_url": "https://www.openstreetmap.org/relation/3721167"}, "geometry": {"type": "Polygon", "coordinates": [[[14.5872, 11.749], [14.6162, 11.7857], [14.6047, 11.8695], [14.6564, 11.9623], [14.6216, 12.036], [14.6535, 12.0641], [14.6358, 12.0922], [14.6665, 12.19], [14.6135, 12.186], [14.5941, 12.2278], [14.5496, 12.2363], [14.5478, 12.2804], [14.4833, 12.3525], [14.2226, 12.3619], [14.1745, 12.409], [14.2033, 12.5382], [14.0833, 13.0833], [13.6334, 13.7082], [13.3384, 13.7213], [13.1978, 13.5134], [13.1811, 13.5375], [13.1405, 13.5176], [13.1467, 13.5505], [13.0885, 13.5161], [13.0631, 13.55], [12.9169, 13.487], [12.8712, 13.501], [12.8734, 13.4719], [12.8419, 13.4765], [12.8567, 13.4406], [12.8106, 13.4311], [12.8268, 13.403], [12.7655, 13.3904], [12.7174, 13.3075], [12.6823, 13.3204], [12.6766, 13.2758], [12.6445, 13.3058], [12.624, 13.2779], [12.5786, 13.2841], [12.5696, 13.2309], [12.5319, 13.2136], [12.5605, 13.1967], [12.5423, 13.1432], [12.5017, 13.1445], [12.4758, 13.0561], [12.4299, 13.0745], [12.3787, 12.87], [12.4313, 12.8521], [12.4974, 12.7652], [12.5039, 12.6913], [12.4028, 12.4966], [12.2868, 12.4246], [12.2328, 12.0571], [12.1924, 12.0423], [12.2663, 11.9805], [12.27, 11.8133], [12.17, 11.6661], [12.2237, 11.6329], [12.2748, 11.694], [12.3, 11.6086], [12.3735, 11.5498], [12.3221, 11.4509], [12.1032, 11.2478], [12.1171, 11.1488], [12.1673, 11.0846], [12.1513, 11.0485], [12.0425, 11.0493], [11.9368, 10.9474], [11.9079, 10.9393], [11.8996, 10.9689], [11.6402, 10.8757], [11.6338, 10.8331], [11.7523, 10.8111], [11.7453, 10.6893], [11.5833, 10.5939], [11.629, 10.4768], [11.5293, 10.3136], [11.6672, 10.1976], [11.6891, 10.0853], [11.7524, 10.0878], [11.7641, 10.0281], [12.0031, 10.0222], [12.0986, 10.0478], [12.2954, 10.3082], [12.4436, 10.3171], [12.555, 10.3717], [12.5788, 10.4921], [12.6525, 10.439], [12.7446, 10.5795], [12.9401, 10.5551], [13.0519, 10.4644], [13.2132, 10.4052], [13.2423, 10.5795], [13.3359, 10.8001], [13.3409, 10.9264], [13.4752, 10.9028], [13.6132, 10.9494], [13.7296, 10.9222], [13.7104, 10.9599], [13.7314, 11.0], [13.7926, 11.0049], [13.9765, 11.3114], [14.1863, 11.2408], [14.4304, 11.4211], [14.6179, 11.5102], [14.652, 11.6034], [14.6439, 11.6499], [14.5492, 11.7174], [14.5872, 11.749]]]}}, {"type": "Feature", "properties": {"name": "Bauchi", "level": "state", "osm_relation_id": 3722233, "centroid_lat": 10.7796, "centroid_lon": 9.9872, "origin": "derived", "source_url": "https://www.openstreetmap.org/relation/3722233"}, "geometry": {"type": "Polygon", "coordinates": [[[10.9503, 9.7144], [10.9285, 9.9098], [10.6845, 10.0806], [10.7007, 10.1123], [10.8152, 10.1288], [10.8572, 10.2357], [10.8262, 10.2937], [10.8332, 10.418], [10.7658, 10.4776], [10.589, 10.5283], [10.4731, 10.6795], [10.5763, 10.8856], [10.643, 10.8605], [10.603, 10.9624], [10.6186, 10.9945], [10.762, 11.1171], [10.8637, 11.0801], [11.0233, 11.2854], [10.8504, 11.3576], [10.9298, 11.4433], [10.9245, 11.6511], [10.8563, 11.8162], [10.807, 11.8565], [10.7244, 12.4516], [10.5941, 12.5201], [10.451, 12.424], [10.4166, 12.4719], [10.2659, 12.4333], [10.1636, 12.143], [10.1727, 12.0533], [9.8335, 11.8904], [9.6792, 11.8649], [9.6694, 11.7844], [9.6217, 11.7475], [9.7126, 11.7209], [9.7796, 11.7365], [9.8217, 11.6923], [9.8425, 11.5706], [9.7868, 11.4735], [9.8696, 11.4843], [9.8779, 11.367], [9.9772, 11.2772], [10.3655, 11.2059], [10.334, 11.1181], [10.1599, 11.0526], [10.1559, 11.0046], [10.2203, 10.9468], [10.134, 10.9475], [10.1009, 10.9828], [9.9582, 10.9615], [9.8658, 10.9994], [9.8537, 11.1088], [9.8929, 11.1587], [9.8225, 11.2834], [9.6586, 11.2333], [9.5956, 11.2476], [9.5379, 11.3173], [9.4545, 11.2852], [9.3271, 11.3499], [9.1334, 11.319], [9.033, 11.2563], [8.8962, 11.1015], [8.8205, 11.099], [8.7927, 11.0608], [8.7694, 10.8293], [8.8552, 10.7074], [8.7492, 10.4407], [8.9463, 10.3277], [8.9303, 10.215], [8.9782, 10.1805], [8.9565, 10.0232], [9.2471, 10.0322], [9.2869, 9.8795], [9.2536, 9.8086], [9.1504, 9.748], [9.2358, 9.6919], [9.2793, 9.7093], [9.2846, 9.6361], [9.4083, 9.5046], [9.4624, 9.5012], [9.5087, 9.54], [9.5508, 9.5052], [9.6869, 9.5208], [9.8536, 9.6067], [9.9623, 9.6127], [9.9917, 9.6457], [9.9657, 9.7738], [10.1284, 9.7238], [10.1665, 9.6502], [10.2815, 9.6631], [10.4889, 9.5526], [10.5163, 9.5106], [10.5891, 9.564], [10.6843, 9.5423], [10.8092, 9.6154], [10.9731, 9.5917], [10.9503, 9.7144]]]}}]}